{"type":"FeatureCollection","crs":{"type":"name","properties":{"name":"EPSG:4326"}},"features":[{"type":"Feature","geometry":{"type":"Point","coordinates":[-71.126375,42.377001]},"properties":{"UNIT_CODE":"LONG","UNIT_NAME":"Longfellow House-Washington's Headquarters National Historic Site","STATE":"MA","Status":"Official","AreaID":13}},{"type":"Feature","geometry":{"type":"Point","coordinates":[-155.083038,58.510455]},"properties":{"UNIT_CODE":"KATM","UNIT_NAME":"Katmai National Park","STATE":"AK","Status":"Official","AreaID":413}},{"type":"Feature","geometry":{"type":"Point","coordinates":[-76.588716,39.416467]},"properties":{"UNIT_CODE":"HAMP","UNIT_NAME":"Hampton National Historic Site","STATE":"MD","Status":"Official","AreaID":145}},{"type":"Feature","geometry":{"type":"Point","coordinates":[-90.270296,33.831495]},"properties":{"UNIT_CODE":"TILL","UNIT_NAME":"Emmett Till and Mamie Till-Mobley National Monument","STATE":"MS-IL","Status":"Official","AreaID":465}},{"type":"Feature","geometry":{"type":"Point","coordinates":[-71.312357,42.645391]},"properties":{"UNIT_CODE":"LOWE","UNIT_NAME":"Lowell National Historical Park","STATE":"MA","Status":"Official","AreaID":37}},{"type":"Feature","geometry":{"type":"Point","coordinates":[-109.340078,36.094061]},"properties":{"UNIT_CODE":"CACH","UNIT_NAME":"Canyon de Chelly National Monument","STATE":"AZ","Status":"Official","AreaID":305}},{"type":"Feature","geometry":{"type":"Point","coordinates":[-102.32901,38.049549]},"properties":{"UNIT_CODE":"AMCH","UNIT_NAME":"Amache National Historic Site","STATE":"CO","Status":"Official","AreaID":462}},{"type":"Feature","geometry":{"type":"Point","coordinates":[-91.807674,46.392227]},"properties":{"UNIT_CODE":"NOCO","UNIT_NAME":"North Country National Scenic Trail","STATE":"NY TO ND","Status":"Official","AreaID":434}},{"type":"Feature","geometry":{"type":"Point","coordinates":[-109.559959,35.70728]},"properties":{"UNIT_CODE":"HUTR","UNIT_NAME":"Hubbell Trading Post National Historic Site","STATE":"AZ","Status":"Official","AreaID":308}},{"type":"Feature","geometry":{"type":"Point","coordinates":[-90.06746,29.963117]},"properties":{"UNIT_CODE":"JAZZ","UNIT_NAME":"New Orleans Jazz National Historical Park","STATE":"LA","Status":"Official","AreaID":285}},{"type":"Feature","geometry":{"type":"Point","coordinates":[-76.897735,38.984027]},"properties":{"UNIT_CODE":"GREE","UNIT_NAME":"Greenbelt Park","STATE":"MD","Status":"Official","AreaID":98}},{"type":"Feature","geometry":{"type":"Point","coordinates":[-113.756283,48.618856]},"properties":{"UNIT_CODE":"GLAC","UNIT_NAME":"Glacier National Park","STATE":"MT","Status":"Official","AreaID":61}},{"type":"Feature","geometry":{"type":"Point","coordinates":[-77.024329,38.910903]},"properties":{"UNIT_CODE":"CAWO","UNIT_NAME":"Carter G. Woodson Home National Historic Site","STATE":"DC","Status":"Official","AreaID":120}},{"type":"Feature","geometry":{"type":"Point","coordinates":[-124.065846,46.287459]},"properties":{"UNIT_CODE":"LEWI","UNIT_NAME":"Lewis and Clark National Historical Park","STATE":"OR-WA","Status":"Legacy","AreaID":389}},{"type":"Feature","geometry":{"type":"Point","coordinates":[-119.706174,34.018539]},"properties":{"UNIT_CODE":"CHIS","UNIT_NAME":"Channel Islands National Park","STATE":"CA","Status":"Official","AreaID":330}},{"type":"Feature","geometry":{"type":"Point","coordinates":[-121.350069,48.828376]},"properties":{"UNIT_CODE":"NOCA","UNIT_NAME":"North Cascades National Park","STATE":"WA","Status":"Official","AreaID":392}},{"type":"Feature","geometry":{"type":"Point","coordinates":[-111.11356,33.648423]},"properties":{"UNIT_CODE":"TONT","UNIT_NAME":"Tonto National Monument","STATE":"AZ","Status":"Official","AreaID":367}},{"type":"Feature","geometry":{"type":"Point","coordinates":[-159.062534,67.396175]},"properties":{"UNIT_CODE":"KOVA","UNIT_NAME":"Kobuk Valley National Park","STATE":"AK","Status":"Official","AreaID":416}},{"type":"Feature","geometry":{"type":"Point","coordinates":[-124.004459,41.277611]},"properties":{"UNIT_CODE":"REDW","UNIT_NAME":"Redwood National Park","STATE":"CA","Status":"Official","AreaID":350}},{"type":"Feature","geometry":{"type":"Point","coordinates":[-93.30986,36.040031]},"properties":{"UNIT_CODE":"BUFF","UNIT_NAME":"Buffalo National River","STATE":"AR","Status":"Official","AreaID":302}},{"type":"Feature","geometry":{"type":"Point","coordinates":[-74.915899,41.145728]},"properties":{"UNIT_CODE":"DELA","UNIT_NAME":"Middle Delaware National Scenic River","STATE":"NJ-PA","Status":"Legacy","AreaID":142}},{"type":"Feature","geometry":{"type":"Point","coordinates":[-83.376316,41.912686]},"properties":{"UNIT_CODE":"RIRA","UNIT_NAME":"River Raisin National Battlefield Park","STATE":"MI","Status":"Official","AreaID":262}},{"type":"Feature","geometry":{"type":"Point","coordinates":[-95.67577,39.037674]},"properties":{"UNIT_CODE":"BRVB","UNIT_NAME":"Brown v. Board of Education National Historical Park","STATE":"KS-SC","Status":"Official","AreaID":235}},{"type":"Feature","geometry":{"type":"Point","coordinates":[-78.11011,34.458295]},"properties":{"UNIT_CODE":"MOCR","UNIT_NAME":"Moores Creek National Battlefield","STATE":"NC","Status":"Official","AreaID":214}},{"type":"Feature","geometry":{"type":"Point","coordinates":[-71.439391,41.940411]},"properties":{"UNIT_CODE":"BLRV","UNIT_NAME":"Blackstone River Valley National Historical Park","STATE":"MA-RI","Status":"Official","AreaID":439}},{"type":"Feature","geometry":{"type":"Point","coordinates":[-101.90098,43.844591]},"properties":{"UNIT_CODE":"MIMI","UNIT_NAME":"Minuteman Missile National Historic Site","STATE":"SD","Status":"Official","AreaID":282}},{"type":"Feature","geometry":{"type":"Point","coordinates":[-91.40632,32.634944]},"properties":{"UNIT_CODE":"POPO","UNIT_NAME":"Poverty Point National Monument","STATE":"LA","Status":"Legacy","AreaID":326}},{"type":"Feature","geometry":{"type":"Point","coordinates":[-114.244268,38.92719]},"properties":{"UNIT_CODE":"GRBA","UNIT_NAME":"Great Basin National Park","STATE":"NV","Status":"Official","AreaID":347}},{"type":"Feature","geometry":{"type":"Point","coordinates":[-111.913951,33.186602]},"properties":{"UNIT_CODE":"PIMA","UNIT_NAME":"Hohokam Pima National Monument","STATE":"AZ","Status":"Official","AreaID":370}},{"type":"Feature","geometry":{"type":"Point","coordinates":[-123.534259,47.786732]},"properties":{"UNIT_CODE":"OLYM","UNIT_NAME":"Olympic National Park","STATE":"WA","Status":"Official","AreaID":395}},{"type":"Feature","geometry":{"type":"Point","coordinates":[-84.064666,39.803484]},"properties":{"UNIT_CODE":"DAAV","UNIT_NAME":"Dayton Aviation Heritage National Historical Park","STATE":"OH","Status":"Official","AreaID":244}},{"type":"Feature","geometry":{"type":"Point","coordinates":[-73.947211,40.821352]},"properties":{"UNIT_CODE":"HAGR","UNIT_NAME":"Hamilton Grange National Memorial","STATE":"NY","Status":"Official","AreaID":31}},{"type":"Feature","geometry":{"type":"Point","coordinates":[-87.018181,30.355388]},"properties":{"UNIT_CODE":"GUIS","UNIT_NAME":"Gulf Islands National Seashore","STATE":"FL-MS","Status":"Official","AreaID":193}},{"type":"Feature","geometry":{"type":"Point","coordinates":[-108.68932,39.054719]},"properties":{"UNIT_CODE":"COLM","UNIT_NAME":"Colorado National Monument","STATE":"CO","Status":"Official","AreaID":55}},{"type":"Feature","geometry":{"type":"Point","coordinates":[-112.84474,37.633816]},"properties":{"UNIT_CODE":"CEBR","UNIT_NAME":"Cedar Breaks National Monument","STATE":"UT","Status":"Official","AreaID":81}},{"type":"Feature","geometry":{"type":"Point","coordinates":[-86.996846,38.118781]},"properties":{"UNIT_CODE":"LIBO","UNIT_NAME":"Lincoln Boyhood National Memorial","STATE":"IN","Status":"Official","AreaID":265}},{"type":"Feature","geometry":{"type":"Point","coordinates":[-77.036556,38.896948]},"properties":{"UNIT_CODE":"WHHO","UNIT_NAME":"White House","STATE":"DC","Status":"Official","AreaID":126}},{"type":"Feature","geometry":{"type":"Point","coordinates":[-100.139326,42.813687]},"properties":{"UNIT_CODE":"NIOB","UNIT_NAME":"Niobrara National Scenic River","STATE":"NE","Status":"Official","AreaID":239}},{"type":"Feature","geometry":{"type":"Point","coordinates":[-88.737092,34.255583]},"properties":{"UNIT_CODE":"TUPE","UNIT_NAME":"Tupelo National Battlefield","STATE":"MS","Status":"Official","AreaID":218}},{"type":"Feature","geometry":{"type":"Point","coordinates":[-84.266745,33.97385]},"properties":{"UNIT_CODE":"CHAT","UNIT_NAME":"Chattahoochee River National Recreation Area","STATE":"GA","Status":"Official","AreaID":169}},{"type":"Feature","geometry":{"type":"Point","coordinates":[-64.739856,18.343945]},"properties":{"UNIT_CODE":"VIIS","UNIT_NAME":"Virgin Islands National Park","STATE":"VI","Status":"Official","AreaID":196}},{"type":"Feature","geometry":{"type":"Point","coordinates":[-90.852222,32.347592]},"properties":{"UNIT_CODE":"VICK","UNIT_NAME":"Vicksburg National Military Park","STATE":"MS-LA","Status":"Official","AreaID":221}},{"type":"Feature","geometry":{"type":"Point","coordinates":[144.654565,13.389654]},"properties":{"UNIT_CODE":"WAPA","UNIT_NAME":"War in the Pacific National Historical Park","STATE":"GUAM","Status":"Official","AreaID":373}},{"type":"Feature","geometry":{"type":"Point","coordinates":[-76.919812,38.191594]},"properties":{"UNIT_CODE":"GEWA","UNIT_NAME":"George Washington Birthplace National Monument","STATE":"VA","Status":"Official","AreaID":148}},{"type":"Feature","geometry":{"type":"Point","coordinates":[-90.213837,32.340844]},"properties":{"UNIT_CODE":"MEMY","UNIT_NAME":"Medgar and Myrlie Evers Home National Monument","STATE":"MS","Status":"Official","AreaID":457}},{"type":"Feature","geometry":{"type":"Point","coordinates":[-70.875809,42.262061]},"properties":{"UNIT_CODE":"BOHA","UNIT_NAME":"Boston Harbor Islands National Recreation Area","STATE":"MA","Status":"Official","AreaID":34}},{"type":"Feature","geometry":{"type":"Point","coordinates":[-105.286044,38.912567]},"properties":{"UNIT_CODE":"FLFO","UNIT_NAME":"Florissant Fossil Beds National Monument","STATE":"CO","Status":"Official","AreaID":78}},{"type":"Feature","geometry":{"type":"Point","coordinates":[-106.312707,35.784303]},"properties":{"UNIT_CODE":"BAND","UNIT_NAME":"Bandelier National Monument","STATE":"NM","Status":"Official","AreaID":288}},{"type":"Feature","geometry":{"type":"Point","coordinates":[-77.735988,39.462393]},"properties":{"UNIT_CODE":"ANTI","UNIT_NAME":"Antietam National Battlefield","STATE":"MD","Status":"Official","AreaID":101}},{"type":"Feature","geometry":{"type":"Point","coordinates":[-77.047681,38.890925]},"properties":{"UNIT_CODE":"VIVE","UNIT_NAME":"Vietnam Veterans Memorial","STATE":"DC","Status":"Official","AreaID":123}},{"type":"Feature","geometry":{"type":"Point","coordinates":[-104.715167,44.590082]},"properties":{"UNIT_CODE":"DETO","UNIT_NAME":"Devils Tower National Monument","STATE":"WY","Status":"Official","AreaID":58}},{"type":"Feature","geometry":{"type":"Point","coordinates":[-81.070705,36.435767]},"properties":{"UNIT_CODE":"BLRI","UNIT_NAME":"Blue Ridge Parkway","STATE":"NC-VA","Status":"Official","AreaID":174}},{"type":"Feature","geometry":{"type":"Point","coordinates":[-71.007742,42.468511]},"properties":{"UNIT_CODE":"SAIR","UNIT_NAME":"Saugus Iron Works National Historic Site","STATE":"MA","Status":"Official","AreaID":10}},{"type":"Feature","geometry":{"type":"Point","coordinates":[-84.507791,39.119742]},"properties":{"UNIT_CODE":"WIHO","UNIT_NAME":"William Howard Taft National Historic Site","STATE":"OH","Status":"Official","AreaID":274}},{"type":"Feature","geometry":{"type":"Point","coordinates":[-93.596374,33.667638]},"properties":{"UNIT_CODE":"WICL","UNIT_NAME":"President William Jefferson Clinton Birthplace Home National Historic Site","STATE":"AR","Status":"Official","AreaID":251}},{"type":"Feature","geometry":{"type":"Point","coordinates":[-122.580125,37.896385]},"properties":{"UNIT_CODE":"MUWO","UNIT_NAME":"Muir Woods National Monument","STATE":"CA","Status":"Official","AreaID":353}},{"type":"Feature","geometry":{"type":"Point","coordinates":[-157.71247,56.872194]},"properties":{"UNIT_CODE":"ANIA","UNIT_NAME":"Aniakchak National Preserve","STATE":"AK","Status":"Official","AreaID":402}},{"type":"Feature","geometry":{"type":"Point","coordinates":[-103.428787,43.575324]},"properties":{"UNIT_CODE":"WICA","UNIT_NAME":"Wind Cave National Park","STATE":"SD","Status":"Official","AreaID":87}},{"type":"Feature","geometry":{"type":"Point","coordinates":[-64.740023,17.734102]},"properties":{"UNIT_CODE":"CHRI","UNIT_NAME":"Christiansted National Historic Site","STATE":"VI","Status":"Official","AreaID":199}},{"type":"Feature","geometry":{"type":"Point","coordinates":[-77.281325,37.570072]},"properties":{"UNIT_CODE":"RICH","UNIT_NAME":"Richmond National Battlefield Park","STATE":"VA","Status":"Official","AreaID":160}},{"type":"Feature","geometry":{"type":"Point","coordinates":[-75.7159,35.934525]},"properties":{"UNIT_CODE":"FORA","UNIT_NAME":"Fort Raleigh National Historic Site","STATE":"NC","Status":"Official","AreaID":177}},{"type":"Feature","geometry":{"type":"Point","coordinates":[-76.302169,37.006582]},"properties":{"UNIT_CODE":"FOMR","UNIT_NAME":"Fort Monroe National Monument","STATE":"VA","Status":"Official","AreaID":425}},{"type":"Feature","geometry":{"type":"Point","coordinates":[-77.040376,38.889195]},"properties":{"UNIT_CODE":"WWII","UNIT_NAME":"World War II Memorial","STATE":"DC","Status":"Official","AreaID":111}},{"type":"Feature","geometry":{"type":"Point","coordinates":[-84.724706,36.109096]},"properties":{"UNIT_CODE":"OBRI","UNIT_NAME":"Obed Wild and Scenic River","STATE":"TN","Status":"Official","AreaID":224}},{"type":"Feature","geometry":{"type":"Point","coordinates":[-118.350956,47.910628]},"properties":{"UNIT_CODE":"LARO","UNIT_NAME":"Lake Roosevelt National Recreation Area","STATE":"WA 1/","Status":"Legacy","AreaID":379}},{"type":"Feature","geometry":{"type":"Point","coordinates":[-105.613013,37.766896]},"properties":{"UNIT_CODE":"GRSA","UNIT_NAME":"Great Sand Dunes National Park","STATE":"CO","Status":"Official","AreaID":67}},{"type":"Feature","geometry":{"type":"Point","coordinates":[-73.455433,41.258172]},"properties":{"UNIT_CODE":"WEFA","UNIT_NAME":"Weir Farm National Historical Park","STATE":"CT","Status":"Official","AreaID":42}},{"type":"Feature","geometry":{"type":"Point","coordinates":[-78.872549,42.901489]},"properties":{"UNIT_CODE":"THRI","UNIT_NAME":"Theodore Roosevelt Inaugural National Historic Site","STATE":"NY","Status":"Official","AreaID":17}},{"type":"Feature","geometry":{"type":"Point","coordinates":[-103.759163,42.422213]},"properties":{"UNIT_CODE":"AGFO","UNIT_NAME":"Agate Fossil Beds National Monument","STATE":"NE","Status":"Official","AreaID":271}},{"type":"Feature","geometry":{"type":"Point","coordinates":[-103.894727,30.59915]},"properties":{"UNIT_CODE":"FODA","UNIT_NAME":"Fort Davis National Historic Site","STATE":"TX","Status":"Official","AreaID":294}},{"type":"Feature","geometry":{"type":"Point","coordinates":[-103.462992,46.955758]},"properties":{"UNIT_CODE":"THRO","UNIT_NAME":"Theodore Roosevelt National Park","STATE":"ND","Status":"Official","AreaID":84}},{"type":"Feature","geometry":{"type":"Point","coordinates":[-81.390087,31.223521]},"properties":{"UNIT_CODE":"FOFR","UNIT_NAME":"Fort Frederica National Monument","STATE":"GA","Status":"Official","AreaID":202}},{"type":"Feature","geometry":{"type":"Point","coordinates":[-78.799776,37.384374]},"properties":{"UNIT_CODE":"APCO","UNIT_NAME":"Appomattox Court House National Historical Park","STATE":"VA","Status":"Official","AreaID":133}},{"type":"Feature","geometry":{"type":"Point","coordinates":[-163.453343,67.429255]},"properties":{"UNIT_CODE":"CAKR","UNIT_NAME":"Cape Krusenstern National Monument","STATE":"AK","Status":"Official","AreaID":405}},{"type":"Feature","geometry":{"type":"Point","coordinates":[-88.569342,47.139008]},"properties":{"UNIT_CODE":"KEWE","UNIT_NAME":"Keweenaw National Historical Park","STATE":"MI","Status":"Official","AreaID":254}},{"type":"Feature","geometry":{"type":"Point","coordinates":[-76.347681,34.828129]},"properties":{"UNIT_CODE":"CALO","UNIT_NAME":"Cape Lookout National Seashore","STATE":"NC","Status":"Legacy","AreaID":180}},{"type":"Feature","geometry":{"type":"Point","coordinates":[-155.239545,19.303092]},"properties":{"UNIT_CODE":"HAVO","UNIT_NAME":"Hawai'i Volcanoes National Park","STATE":"HI","Status":"Official","AreaID":339}},{"type":"Feature","geometry":{"type":"Point","coordinates":[-79.588752,39.811171]},"properties":{"UNIT_CODE":"FONE","UNIT_NAME":"Fort Necessity National Battlefield","STATE":"PA","Status":"Official","AreaID":129}},{"type":"Feature","geometry":{"type":"Point","coordinates":[-77.61561,37.144724]},"properties":{"UNIT_CODE":"PETE","UNIT_NAME":"Petersburg National Battlefield","STATE":"VA","Status":"Official","AreaID":157}},{"type":"Feature","geometry":{"type":"Point","coordinates":[-77.07367,38.882098]},"properties":{"UNIT_CODE":"ARHO","UNIT_NAME":"Arlington House, The Robert E. Lee Memorial","STATE":"VA","Status":"Official","AreaID":108}},{"type":"Feature","geometry":{"type":"Point","coordinates":[-82.015114,34.143662]},"properties":{"UNIT_CODE":"NISI","UNIT_NAME":"Ninety Six National Historic Site","STATE":"SC","Status":"Official","AreaID":227}},{"type":"Feature","geometry":{"type":"Point","coordinates":[-112.547898,41.61655]},"properties":{"UNIT_CODE":"GOSP","UNIT_NAME":"Golden Spike National Historical Park","STATE":"UT","Status":"Official","AreaID":64}},{"type":"Feature","geometry":{"type":"Point","coordinates":[-97.176178,31.604897]},"properties":{"UNIT_CODE":"WACO","UNIT_NAME":"Waco Mammoth National Monument","STATE":"TX","Status":"Official","AreaID":445}},{"type":"Feature","geometry":{"type":"Point","coordinates":[-158.145323,67.858488]},"properties":{"UNIT_CODE":"NOAT","UNIT_NAME":"Noatak National Preserve","STATE":"AK","Status":"Official","AreaID":419}},{"type":"Feature","geometry":{"type":"Point","coordinates":[-71.132177,42.324849]},"properties":{"UNIT_CODE":"FRLA","UNIT_NAME":"Frederick Law Olmsted National Historic Site","STATE":"MA","Status":"Official","AreaID":46}},{"type":"Feature","geometry":{"type":"Point","coordinates":[-82.838063,36.155535]},"properties":{"UNIT_CODE":"ANJO","UNIT_NAME":"Andrew Johnson National Historic Site","STATE":"TN","Status":"Official","AreaID":205}},{"type":"Feature","geometry":{"type":"Point","coordinates":[-80.763516,33.794062]},"properties":{"UNIT_CODE":"CONG","UNIT_NAME":"Congaree National Park","STATE":"SC","Status":"Official","AreaID":183}},{"type":"Feature","geometry":{"type":"Point","coordinates":[-122.030307,38.056692]},"properties":{"UNIT_CODE":"POCH","UNIT_NAME":"Port Chicago Naval Magazine National Memorial","STATE":"CA","Status":"Official","AreaID":359}},{"type":"Feature","geometry":{"type":"Point","coordinates":[-112.299698,36.309884]},"properties":{"UNIT_CODE":"GRCA","UNIT_NAME":"Grand Canyon National Park","STATE":"AZ","Status":"Official","AreaID":336}},{"type":"Feature","geometry":{"type":"Point","coordinates":[-77.742228,39.310032]},"properties":{"UNIT_CODE":"HAFE","UNIT_NAME":"Harpers Ferry National Historical Park","STATE":"MD-VA-WV","Status":"Official","AreaID":105}},{"type":"Feature","geometry":{"type":"Point","coordinates":[-75.766228,40.210909]},"properties":{"UNIT_CODE":"HOFU","UNIT_NAME":"Hopewell Furnace National Historic Site","STATE":"PA","Status":"Official","AreaID":152}},{"type":"Feature","geometry":{"type":"Point","coordinates":[-105.674905,35.538127]},"properties":{"UNIT_CODE":"PECO","UNIT_NAME":"Pecos National Historical Park","STATE":"NM","Status":"Official","AreaID":314}},{"type":"Feature","geometry":{"type":"Point","coordinates":[-104.601254,32.120073]},"properties":{"UNIT_CODE":"CAVE","UNIT_NAME":"Carlsbad Caverns National Park","STATE":"NM","Status":"Official","AreaID":291}},{"type":"Feature","geometry":{"type":"Point","coordinates":[-77.032806,38.895979]},"properties":{"UNIT_CODE":"WWIM","UNIT_NAME":"World War I Memorial","STATE":"DC","Status":"Official","AreaID":442}},{"type":"Feature","geometry":{"type":"Point","coordinates":[-73.925618,41.764858]},"properties":{"UNIT_CODE":"HOFR","UNIT_NAME":"Home of Franklin D. Roosevelt National Historic Site","STATE":"NY","Status":"Official","AreaID":20}},{"type":"Feature","geometry":{"type":"Point","coordinates":[-113.646062,45.646498]},"properties":{"UNIT_CODE":"BIHO","UNIT_NAME":"Big Hole National Battlefield","STATE":"MT","Status":"Official","AreaID":90}},{"type":"Feature","geometry":{"type":"Point","coordinates":[-74.00169,40.733777]},"properties":{"UNIT_CODE":"STON","UNIT_NAME":"Stonewall National Monument","STATE":"NY","Status":"Official","AreaID":448}},{"type":"Feature","geometry":{"type":"Point","coordinates":[-143.866014,61.215586]},"properties":{"UNIT_CODE":"WRST","UNIT_NAME":"Wrangell-St. Elias National Park","STATE":"AK","Status":"Official","AreaID":422}},{"type":"Feature","geometry":{"type":"Point","coordinates":[-113.706314,42.067149]},"properties":{"UNIT_CODE":"CIRO","UNIT_NAME":"City of Rocks National Reserve","STATE":"ID","Status":"Official","AreaID":398}},{"type":"Feature","geometry":{"type":"Point","coordinates":[-94.704527,37.843463]},"properties":{"UNIT_CODE":"FOSC","UNIT_NAME":"Fort Scott National Historic Site","STATE":"KS","Status":"Official","AreaID":248}},{"type":"Feature","geometry":{"type":"Point","coordinates":[-77.178105,40.208671]},"properties":{"UNIT_CODE":"CIBS","UNIT_NAME":"Carlisle Federal Indian Boarding School National Monument","STATE":"PA","Status":"Official","AreaID":468}},{"type":"Feature","geometry":{"type":"Point","coordinates":[-118.560389,36.496369]},"properties":{"UNIT_CODE":"SEQU","UNIT_NAME":"Sequoia National Park","STATE":"CA","Status":"Official","AreaID":356}},{"type":"Feature","geometry":{"type":"Point","coordinates":[-73.714161,42.368302]},"properties":{"UNIT_CODE":"MAVA","UNIT_NAME":"Martin Van Buren National Historic Site","STATE":"NY","Status":"Official","AreaID":2}},{"type":"Feature","geometry":{"type":"Point","coordinates":[-111.511348,35.371121]},"properties":{"UNIT_CODE":"SUCR","UNIT_NAME":"Sunset Crater Volcano National Monument","STATE":"AZ","Status":"Official","AreaID":311}},{"type":"Feature","geometry":{"type":"Point","coordinates":[-72.373337,43.500464]},"properties":{"UNIT_CODE":"SAGA","UNIT_NAME":"Saint-Gaudens National Historical Park","STATE":"NH","Status":"Official","AreaID":23}},{"type":"Feature","geometry":{"type":"Point","coordinates":[-89.645138,39.797163]},"properties":{"UNIT_CODE":"LIHO","UNIT_NAME":"Lincoln Home National Historic Site","STATE":"IL","Status":"Official","AreaID":268}},{"type":"Feature","geometry":{"type":"Point","coordinates":[-169.448835,-14.248814]},"properties":{"UNIT_CODE":"NPSA","UNIT_NAME":"National Park of American Samoa","STATE":"SAMOA","Status":"Official","AreaID":376}},{"type":"Feature","geometry":{"type":"Point","coordinates":[-156.956485,21.192298]},"properties":{"UNIT_CODE":"KALA","UNIT_NAME":"Kalaupapa National Historical Park","STATE":"HI","Status":"Official","AreaID":333}},{"type":"Feature","geometry":{"type":"Point","coordinates":[-106.74535,35.140006]},"properties":{"UNIT_CODE":"PETR","UNIT_NAME":"Petroglyph National Monument","STATE":"NM","Status":"Official","AreaID":320}},{"type":"Feature","geometry":{"type":"Point","coordinates":[-106.090189,34.259693]},"properties":{"UNIT_CODE":"SAPU","UNIT_NAME":"Salinas Pueblo Missions National Monument","STATE":"NM","Status":"Official","AreaID":297}},{"type":"Feature","geometry":{"type":"Point","coordinates":[-111.047615,31.572586]},"properties":{"UNIT_CODE":"TUMA","UNIT_NAME":"Tumacacori National Historical Park","STATE":"AZ","Status":"Official","AreaID":368}},{"type":"Feature","geometry":{"type":"Point","coordinates":[-85.907977,33.634964]},"properties":{"UNIT_CODE":"FRRI","UNIT_NAME":"Freedom Riders National Monument","STATE":"AL","Status":"Official","AreaID":452}},{"type":"Feature","geometry":{"type":"Point","coordinates":[-121.404643,40.497135]},"properties":{"UNIT_CODE":"LAVO","UNIT_NAME":"Lassen Volcanic National Park","STATE":"CA","Status":"Official","AreaID":345}},{"type":"Feature","geometry":{"type":"Point","coordinates":[-82.6429,27.522199]},"properties":{"UNIT_CODE":"DESO","UNIT_NAME":"De Soto National Memorial","STATE":"FL","Status":"Official","AreaID":191}},{"type":"Feature","geometry":{"type":"Point","coordinates":[-79.73081,37.114188]},"properties":{"UNIT_CODE":"BOWA","UNIT_NAME":"Booker T. Washington National Monument","STATE":"VA","Status":"Official","AreaID":136}},{"type":"Feature","geometry":{"type":"Point","coordinates":[-74.537495,40.767813]},"properties":{"UNIT_CODE":"MORR","UNIT_NAME":"Morristown National Historical Park","STATE":"NJ","Status":"Official","AreaID":26}},{"type":"Feature","geometry":{"type":"Point","coordinates":[-110.011099,37.602637]},"properties":{"UNIT_CODE":"NABR","UNIT_NAME":"Natural Bridges National Monument","STATE":"UT","Status":"Official","AreaID":53}},{"type":"Feature","geometry":{"type":"Point","coordinates":[-90.581868,46.938642]},"properties":{"UNIT_CODE":"APIS","UNIT_NAME":"Apostle Islands National Lakeshore","STATE":"WI","Status":"Official","AreaID":236}},{"type":"Feature","geometry":{"type":"Point","coordinates":[-89.654711,32.870717]},"properties":{"UNIT_CODE":"NATR","UNIT_NAME":"Natchez Trace Parkway","STATE":"TN-MS-AL","Status":"Official","AreaID":215}},{"type":"Feature","geometry":{"type":"Point","coordinates":[-67.133602,45.128708]},"properties":{"UNIT_CODE":"SACR","UNIT_NAME":"Saint Croix Island International Historic Site","STATE":"ME","Status":"Official","AreaID":5}},{"type":"Feature","geometry":{"type":"Point","coordinates":[-93.12761,44.91462]},"properties":{"UNIT_CODE":"MISS","UNIT_NAME":"Mississippi National River and Recreation Area","STATE":"MN","Status":"Official","AreaID":277}},{"type":"Feature","geometry":{"type":"Point","coordinates":[-101.709308,35.601135]},"properties":{"UNIT_CODE":"LAMR","UNIT_NAME":"Lake Meredith National Recreation Area","STATE":"TX","Status":"Official","AreaID":317}},{"type":"Feature","geometry":{"type":"Point","coordinates":[-115.953294,33.899342]},"properties":{"UNIT_CODE":"JOTR","UNIT_NAME":"Joshua Tree National Park","STATE":"CA","Status":"Official","AreaID":342}},{"type":"Feature","geometry":{"type":"Point","coordinates":[-77.051814,38.878955]},"properties":{"UNIT_CODE":"LYBA","UNIT_NAME":"Lyndon Baines Johnson Memorial Grove on the Potomac","STATE":"DC","Status":"Official","AreaID":96}},{"type":"Feature","geometry":{"type":"Point","coordinates":[-84.59562,37.792723]},"properties":{"UNIT_CODE":"CANE","UNIT_NAME":"Camp Nelson National Monument","STATE":"KY","Status":"Official","AreaID":455}},{"type":"Feature","geometry":{"type":"Point","coordinates":[-73.496215,40.885829]},"properties":{"UNIT_CODE":"SAHI","UNIT_NAME":"Sagamore Hill National Historic Site","STATE":"NY","Status":"Official","AreaID":32}},{"type":"Feature","geometry":{"type":"Point","coordinates":[-122.682282,48.206928]},"properties":{"UNIT_CODE":"EBLA","UNIT_NAME":"Ebey's Landing National Historical Reserve","STATE":"WA","Status":"Legacy","AreaID":382}},{"type":"Feature","geometry":{"type":"Point","coordinates":[-107.369505,38.452526]},"properties":{"UNIT_CODE":"CURE","UNIT_NAME":"Curecanti National Recreation Area","STATE":"CO 1/","Status":"Official","AreaID":56}},{"type":"Feature","geometry":{"type":"Point","coordinates":[-74.010262,40.707319]},"properties":{"UNIT_CODE":"FEHA","UNIT_NAME":"Federal Hall National Memorial","STATE":"NY","Status":"Official","AreaID":29}},{"type":"Feature","geometry":{"type":"Point","coordinates":[-110.256496,31.350764]},"properties":{"UNIT_CODE":"CORO","UNIT_NAME":"Coronado National Memorial","STATE":"AZ","Status":"Official","AreaID":362}},{"type":"Feature","geometry":{"type":"Point","coordinates":[-105.703659,40.357343]},"properties":{"UNIT_CODE":"ROMO","UNIT_NAME":"Rocky Mountain National Park","STATE":"CO","Status":"Official","AreaID":76}},{"type":"Feature","geometry":{"type":"Point","coordinates":[-71.299927,42.45491]},"properties":{"UNIT_CODE":"MIMA","UNIT_NAME":"Minute Man National Historical Park","STATE":"MA","Status":"Official","AreaID":8}},{"type":"Feature","geometry":{"type":"Point","coordinates":[-76.247206,38.489332]},"properties":{"UNIT_CODE":"HATU","UNIT_NAME":"Harriet Tubman Underground Railroad National Historical Park","STATE":"MD","Status":"Official","AreaID":428}},{"type":"Feature","geometry":{"type":"Point","coordinates":[-77.393085,39.361198]},"properties":{"UNIT_CODE":"MONO","UNIT_NAME":"Monocacy National Battlefield","STATE":"MD","Status":"Official","AreaID":121}},{"type":"Feature","geometry":{"type":"Point","coordinates":[-91.352475,41.667853]},"properties":{"UNIT_CODE":"HEHO","UNIT_NAME":"Herbert Hoover National Historic Site","STATE":"IA","Status":"Official","AreaID":257}},{"type":"Feature","geometry":{"type":"Point","coordinates":[-77.140303,38.967715]},"properties":{"UNIT_CODE":"CLBA","UNIT_NAME":"Clara Barton National Historic Site","STATE":"MD","Status":"Official","AreaID":93}},{"type":"Feature","geometry":{"type":"Point","coordinates":[-84.737475,37.057036]},"properties":{"UNIT_CODE":"MISP","UNIT_NAME":"Mill Springs Battlefield National Monument","STATE":"KY","Status":"Official","AreaID":458}},{"type":"Feature","geometry":{"type":"Point","coordinates":[-76.580251,39.263647]},"properties":{"UNIT_CODE":"FOMC","UNIT_NAME":"Fort McHenry National Monument and Historic Shrine","STATE":"MD","Status":"Official","AreaID":143}},{"type":"Feature","geometry":{"type":"Point","coordinates":[-155.135199,66.883303]},"properties":{"UNIT_CODE":"GAAR","UNIT_NAME":"Gates of the Arctic National Preserve","STATE":"AK","Status":"Official","AreaID":408}},{"type":"Feature","geometry":{"type":"Point","coordinates":[-98.625139,30.251636]},"properties":{"UNIT_CODE":"LYJO","UNIT_NAME":"Lyndon B. Johnson National Historical Park","STATE":"TX","Status":"Official","AreaID":303}},{"type":"Feature","geometry":{"type":"Point","coordinates":[-84.589046,33.924026]},"properties":{"UNIT_CODE":"KEMO","UNIT_NAME":"Kennesaw Mountain National Battlefield Park","STATE":"GA","Status":"Official","AreaID":208}},{"type":"Feature","geometry":{"type":"Point","coordinates":[-136.869128,58.827408]},"properties":{"UNIT_CODE":"GLBA","UNIT_NAME":"Glacier Bay National Park","STATE":"AK","Status":"Official","AreaID":411}},{"type":"Feature","geometry":{"type":"Point","coordinates":[-114.248557,42.680667]},"properties":{"UNIT_CODE":"MIIN","UNIT_NAME":"Minidoka National Historic Site","STATE":"ID-WA","Status":"Official","AreaID":387}},{"type":"Feature","geometry":{"type":"Point","coordinates":[-108.682193,37.245326]},"properties":{"UNIT_CODE":"YUHO","UNIT_NAME":"Yucca House National Monument","STATE":"CO","Status":"Official","AreaID":73}},{"type":"Feature","geometry":{"type":"Point","coordinates":[-91.382092,31.542463]},"properties":{"UNIT_CODE":"NATC","UNIT_NAME":"Natchez National Historical Park","STATE":"MS","Status":"Official","AreaID":230}},{"type":"Feature","geometry":{"type":"Point","coordinates":[-77.056092,38.684788]},"properties":{"UNIT_CODE":"PISC","UNIT_NAME":"Piscataway Park","STATE":"MD","Status":"Official","AreaID":118}},{"type":"Feature","geometry":{"type":"Point","coordinates":[-85.70479,32.430267]},"properties":{"UNIT_CODE":"TUIN","UNIT_NAME":"Tuskegee Institute National Historic Site","STATE":"AL","Status":"Official","AreaID":167}},{"type":"Feature","geometry":{"type":"Point","coordinates":[-76.649344,37.412257]},"properties":{"UNIT_CODE":"CAJO","UNIT_NAME":"Captain John Smith Chesapeake National Historic Trail","STATE":"VA TO NY","Status":"Official","AreaID":432}},{"type":"Feature","geometry":{"type":"Point","coordinates":[-106.325954,32.764767]},"properties":{"UNIT_CODE":"WHSA","UNIT_NAME":"White Sands National Park","STATE":"NM","Status":"Official","AreaID":324}},{"type":"Feature","geometry":{"type":"Point","coordinates":[-112.875474,32.008406]},"properties":{"UNIT_CODE":"ORPI","UNIT_NAME":"Organ Pipe Cactus National Monument","STATE":"AZ","Status":"Official","AreaID":365}},{"type":"Feature","geometry":{"type":"Point","coordinates":[-94.431061,35.38859]},"properties":{"UNIT_CODE":"FOSM","UNIT_NAME":"Fort Smith National Historic Site","STATE":"AR-OK","Status":"Official","AreaID":300}},{"type":"Feature","geometry":{"type":"Point","coordinates":[-74.940433,41.098851]},"properties":{"UNIT_CODE":"DEWA","UNIT_NAME":"Delaware Water Gap National Recreation Area","STATE":"NJ-PA","Status":"Legacy","AreaID":140}},{"type":"Feature","geometry":{"type":"Point","coordinates":[-84.371746,33.754911]},"properties":{"UNIT_CODE":"MALU","UNIT_NAME":"Martin Luther King, Jr., National Historical Park","STATE":"GA","Status":"Official","AreaID":233}},{"type":"Feature","geometry":{"type":"Point","coordinates":[-88.806737,48.031046]},"properties":{"UNIT_CODE":"ISRO","UNIT_NAME":"Isle Royale National Park","STATE":"MI","Status":"Official","AreaID":260}},{"type":"Feature","geometry":{"type":"Point","coordinates":[-81.238447,29.711514]},"properties":{"UNIT_CODE":"FOMA","UNIT_NAME":"Fort Matanzas National Monument","STATE":"FL","Status":"Official","AreaID":186}},{"type":"Feature","geometry":{"type":"Point","coordinates":[-108.234741,45.103636]},"properties":{"UNIT_CODE":"BICA","UNIT_NAME":"Bighorn Canyon National Recreation Area","STATE":"MT-WY","Status":"Official","AreaID":50}},{"type":"Feature","geometry":{"type":"Point","coordinates":[-86.120323,37.18863]},"properties":{"UNIT_CODE":"MACA","UNIT_NAME":"Mammoth Cave National Park","STATE":"KY","Status":"Official","AreaID":212}},{"type":"Feature","geometry":{"type":"Point","coordinates":[-90.351694,38.551832]},"properties":{"UNIT_CODE":"ULSG","UNIT_NAME":"Ulysses S. Grant National Historic Site","STATE":"MO","Status":"Official","AreaID":280}},{"type":"Feature","geometry":{"type":"Point","coordinates":[-122.662482,45.623804]},"properties":{"UNIT_CODE":"FOVA","UNIT_NAME":"Fort Vancouver National Historic Site","STATE":"WA-OR","Status":"Official","AreaID":390}},{"type":"Feature","geometry":{"type":"Point","coordinates":[-110.766365,41.856673]},"properties":{"UNIT_CODE":"FOBU","UNIT_NAME":"Fossil Butte National Monument","STATE":"WY","Status":"Official","AreaID":70}},{"type":"Feature","geometry":{"type":"Point","coordinates":[-75.009717,41.516969]},"properties":{"UNIT_CODE":"UPDE","UNIT_NAME":"Upper Delaware Scenic and Recreational River","STATE":"NY-PA","Status":"Official","AreaID":164}},{"type":"Feature","geometry":{"type":"Point","coordinates":[-77.05021,38.88928]},"properties":{"UNIT_CODE":"LINC","UNIT_NAME":"Lincoln Memorial","STATE":"DC","Status":"Official","AreaID":115}},{"type":"Feature","geometry":{"type":"Point","coordinates":[-75.455424,43.21067]},"properties":{"UNIT_CODE":"FOST","UNIT_NAME":"Fort Stanwix National Monument","STATE":"NY","Status":"Official","AreaID":18}},{"type":"Feature","geometry":{"type":"Point","coordinates":[-154.131849,60.711398]},"properties":{"UNIT_CODE":"LACL","UNIT_NAME":"Lake Clark National Preserve","STATE":"AK","Status":"Official","AreaID":417}},{"type":"Feature","geometry":{"type":"Point","coordinates":[-120.690308,48.348622]},"properties":{"UNIT_CODE":"LACH","UNIT_NAME":"Lake Chelan National Recreation Area","STATE":"WA","Status":"Official","AreaID":393}},{"type":"Feature","geometry":{"type":"Point","coordinates":[-77.237934,39.799278]},"properties":{"UNIT_CODE":"GETT","UNIT_NAME":"Gettysburg National Military Park","STATE":"PA","Status":"Official","AreaID":150}},{"type":"Feature","geometry":{"type":"Point","coordinates":[-77.922728,39.608879]},"properties":{"UNIT_CODE":"CHOH","UNIT_NAME":"Chesapeake and Ohio Canal National Historical Park","STATE":"MD-DC-WV","Status":"Official","AreaID":102}},{"type":"Feature","geometry":{"type":"Point","coordinates":[-112.185619,37.570801]},"properties":{"UNIT_CODE":"BRCA","UNIT_NAME":"Bryce Canyon National Park","STATE":"UT","Status":"Official","AreaID":79}},{"type":"Feature","geometry":{"type":"Point","coordinates":[-95.832148,40.664103]},"properties":{"UNIT_CODE":"LECL","UNIT_NAME":"Lewis and Clark National Historic Trail","STATE":"IL-NE","Status":"Official","AreaID":263}},{"type":"Feature","geometry":{"type":"Point","coordinates":[-122.473424,37.808541]},"properties":{"UNIT_CODE":"FOPO","UNIT_NAME":"Fort Point National Historic Site","STATE":"CA","Status":"Official","AreaID":334}},{"type":"Feature","geometry":{"type":"Point","coordinates":[-103.194084,29.333836]},"properties":{"UNIT_CODE":"BIBE","UNIT_NAME":"Big Bend National Park","STATE":"TX","Status":"Official","AreaID":289}},{"type":"Feature","geometry":{"type":"Point","coordinates":[-77.043225,38.89091]},"properties":{"UNIT_CODE":"COGA","UNIT_NAME":"Constitution Gardens","STATE":"DC","Status":"Official","AreaID":124}},{"type":"Feature","geometry":{"type":"Point","coordinates":[-158.056353,21.385999]},"properties":{"UNIT_CODE":"HONO","UNIT_NAME":"Honouliuli National Historic Site","STATE":"HI","Status":"Official","AreaID":440}},{"type":"Feature","geometry":{"type":"Point","coordinates":[-122.612668,40.616316]},"properties":{"UNIT_CODE":"WHIS","UNIT_NAME":"Whiskeytown-Shasta-Trinity National Recreation Area","STATE":"CA 3/","Status":"Official","AreaID":371}},{"type":"Feature","geometry":{"type":"Point","coordinates":[-123.008732,48.462223]},"properties":{"UNIT_CODE":"SAJH","UNIT_NAME":"San Juan Island National Historical Park","STATE":"WA","Status":"Legacy","AreaID":396}},{"type":"Feature","geometry":{"type":"Point","coordinates":[-135.315629,57.047029]},"properties":{"UNIT_CODE":"SITK","UNIT_NAME":"Sitka National Historical Park","STATE":"AK","Status":"Official","AreaID":420}},{"type":"Feature","geometry":{"type":"Point","coordinates":[-79.92344,39.777846]},"properties":{"UNIT_CODE":"FRHI","UNIT_NAME":"Friendship Hill National Historic Site","STATE":"PA","Status":"Official","AreaID":146}},{"type":"Feature","geometry":{"type":"Point","coordinates":[-99.215497,38.18379]},"properties":{"UNIT_CODE":"FOLS","UNIT_NAME":"Fort Larned National Historic Site","STATE":"KS","Status":"Official","AreaID":246}},{"type":"Feature","geometry":{"type":"Point","coordinates":[-66.120493,18.468517]},"properties":{"UNIT_CODE":"SAJU","UNIT_NAME":"San Juan National Historic Site","STATE":"PR","Status":"Legacy","AreaID":194}},{"type":"Feature","geometry":{"type":"Point","coordinates":[145.723996,15.215021]},"properties":{"UNIT_CODE":"AMME","UNIT_NAME":"American Memorial Park","STATE":"NMI","Status":"Legacy","AreaID":466}},{"type":"Feature","geometry":{"type":"Point","coordinates":[-107.958144,36.034019]},"properties":{"UNIT_CODE":"CHCU","UNIT_NAME":"Chaco Culture National Historical Park","STATE":"NM","Status":"Official","AreaID":306}},{"type":"Feature","geometry":{"type":"Point","coordinates":[-122.917544,38.070752]},"properties":{"UNIT_CODE":"PORE","UNIT_NAME":"Point Reyes National Seashore","STATE":"CA","Status":"Official","AreaID":354}},{"type":"Feature","geometry":{"type":"Point","coordinates":[-101.288411,29.579392]},"properties":{"UNIT_CODE":"AMIS","UNIT_NAME":"Amistad National Recreation Area","STATE":"TX","Status":"Official","AreaID":286}},{"type":"Feature","geometry":{"type":"Point","coordinates":[-110.536266,36.685493]},"properties":{"UNIT_CODE":"NAVA","UNIT_NAME":"Navajo National Monument","STATE":"AZ","Status":"Official","AreaID":309}},{"type":"Feature","geometry":{"type":"Point","coordinates":[-77.047522,38.964168]},"properties":{"UNIT_CODE":"ROCR","UNIT_NAME":"Rock Creek Park","STATE":"DC","Status":"Official","AreaID":99}},{"type":"Feature","geometry":{"type":"Point","coordinates":[-89.617014,43.078583]},"properties":{"UNIT_CODE":"IATR","UNIT_NAME":"Ice Age National Scenic Trail","STATE":"WI","Status":"Official","AreaID":241}},{"type":"Feature","geometry":{"type":"Point","coordinates":[-90.175411,38.623461]},"properties":{"UNIT_CODE":"JEFF","UNIT_NAME":"Gateway Arch National Park","STATE":"MO-IL","Status":"Official","AreaID":266}},{"type":"Feature","geometry":{"type":"Point","coordinates":[-115.356586,36.402148]},"properties":{"UNIT_CODE":"TUSK","UNIT_NAME":"Tule Springs Fossil Beds National Monument","STATE":"NV","Status":"Official","AreaID":443}},{"type":"Feature","geometry":{"type":"Point","coordinates":[-88.335997,35.140487]},"properties":{"UNIT_CODE":"SHIL","UNIT_NAME":"Shiloh National Military Park","STATE":"TN-MS","Status":"Official","AreaID":219}},{"type":"Feature","geometry":{"type":"Point","coordinates":[-119.542841,37.841284]},"properties":{"UNIT_CODE":"YOSE","UNIT_NAME":"Yosemite National Park","STATE":"CA","Status":"Official","AreaID":374}},{"type":"Feature","geometry":{"type":"Point","coordinates":[-117.138803,36.566823]},"properties":{"UNIT_CODE":"DEVA","UNIT_NAME":"Death Valley National Park","STATE":"CA-NV","Status":"Official","AreaID":331}},{"type":"Feature","geometry":{"type":"Point","coordinates":[-84.130642,32.197882]},"properties":{"UNIT_CODE":"ANDE","UNIT_NAME":"Andersonville National Historic Site","STATE":"GA","Status":"Official","AreaID":172}},{"type":"Feature","geometry":{"type":"Point","coordinates":[-64.703873,18.279709]},"properties":{"UNIT_CODE":"VICR","UNIT_NAME":"Virgin Islands Coral Reef National Monument","STATE":"VI","Status":"Official","AreaID":197}},{"type":"Feature","geometry":{"type":"Point","coordinates":[-83.594436,32.827261]},"properties":{"UNIT_CODE":"OCMU","UNIT_NAME":"Ocmulgee Mounds National Historical Park","STATE":"GA","Status":"Official","AreaID":222}},{"type":"Feature","geometry":{"type":"Point","coordinates":[-96.549909,38.41855]},"properties":{"UNIT_CODE":"TAPR","UNIT_NAME":"Tallgrass Prairie National Preserve","STATE":"KS","Status":"Official","AreaID":249}},{"type":"Feature","geometry":{"type":"Point","coordinates":[-104.037708,47.99886]},"properties":{"UNIT_CODE":"FOUS","UNIT_NAME":"Fort Union Trading Post National Historic Site","STATE":"ND-MT","Status":"Official","AreaID":85}},{"type":"Feature","geometry":{"type":"Point","coordinates":[-122.367132,37.908338]},"properties":{"UNIT_CODE":"RORI","UNIT_NAME":"Rosie the Riveter/World War II Home Front National Historical Park","STATE":"CA","Status":"Official","AreaID":351}},{"type":"Feature","geometry":{"type":"Point","coordinates":[-74.004328,40.714558]},"properties":{"UNIT_CODE":"AFBG","UNIT_NAME":"African Burial Ground National Monument","STATE":"NY","Status":"Official","AreaID":35}},{"type":"Feature","geometry":{"type":"Point","coordinates":[-91.324065,37.242396]},"properties":{"UNIT_CODE":"OZAR","UNIT_NAME":"Ozark National Scenic Riverways","STATE":"MO","Status":"Official","AreaID":269}},{"type":"Feature","geometry":{"type":"Point","coordinates":[-108.937732,40.494335]},"properties":{"UNIT_CODE":"DINO","UNIT_NAME":"Dinosaur National Monument","STATE":"CO-UT","Status":"Official","AreaID":59}},{"type":"Feature","geometry":{"type":"Point","coordinates":[-70.087308,42.050308]},"properties":{"UNIT_CODE":"CACO","UNIT_NAME":"Cape Cod National Seashore","STATE":"MA","Status":"Official","AreaID":11}},{"type":"Feature","geometry":{"type":"Point","coordinates":[-94.346843,30.475224]},"properties":{"UNIT_CODE":"BITH","UNIT_NAME":"Big Thicket National Preserve","STATE":"TX","Status":"Official","AreaID":283}},{"type":"Feature","geometry":{"type":"Point","coordinates":[-82.450712,35.267824]},"properties":{"UNIT_CODE":"CARL","UNIT_NAME":"Carl Sandburg Home National Historic Site","STATE":"NC","Status":"Official","AreaID":175}},{"type":"Feature","geometry":{"type":"Point","coordinates":[-97.462946,26.023755]},"properties":{"UNIT_CODE":"PAAL","UNIT_NAME":"Palo Alto Battlefield National Historical Park","STATE":"TX","Status":"Official","AreaID":328}},{"type":"Feature","geometry":{"type":"Point","coordinates":[-73.857127,40.598552]},"properties":{"UNIT_CODE":"GATE","UNIT_NAME":"Gateway National Recreation Area","STATE":"NJ-NY","Status":"Official","AreaID":15}},{"type":"Feature","geometry":{"type":"Point","coordinates":[-71.41049,41.829692]},"properties":{"UNIT_CODE":"ROWI","UNIT_NAME":"Roger Williams National Memorial","STATE":"RI","Status":"Official","AreaID":38}},{"type":"Feature","geometry":{"type":"Point","coordinates":[-109.772657,34.931061]},"properties":{"UNIT_CODE":"PEFO","UNIT_NAME":"Petrified Forest National Park","STATE":"AZ","Status":"Official","AreaID":348}},{"type":"Feature","geometry":{"type":"Point","coordinates":[-150.246592,59.809192]},"properties":{"UNIT_CODE":"KEFJ","UNIT_NAME":"Kenai Fjords National Park","STATE":"AK","Status":"Official","AreaID":414}},{"type":"Feature","geometry":{"type":"Point","coordinates":[-112.739869,36.862832]},"properties":{"UNIT_CODE":"PISP","UNIT_NAME":"Pipe Spring National Monument","STATE":"AZ","Status":"Official","AreaID":82}},{"type":"Feature","geometry":{"type":"Point","coordinates":[-64.755843,17.78019]},"properties":{"UNIT_CODE":"SARI","UNIT_NAME":"Salt River Bay National Historical Park and Ecological Preserve","STATE":"VI","Status":"Official","AreaID":200}},{"type":"Feature","geometry":{"type":"Point","coordinates":[-104.022562,30.305802]},"properties":{"UNIT_CODE":"BLSC","UNIT_NAME":"Blackwell School National Historic Site","STATE":"TX","Status":"Official","AreaID":463}},{"type":"Feature","geometry":{"type":"Point","coordinates":[-106.510599,35.918076]},"properties":{"UNIT_CODE":"VALL","UNIT_NAME":"Valles Caldera National Preserve","STATE":"NM","Status":"Official","AreaID":435}},{"type":"Feature","geometry":{"type":"Point","coordinates":[-77.469205,39.653243]},"properties":{"UNIT_CODE":"CATO","UNIT_NAME":"Catoctin Mountain Park","STATE":"MD","Status":"Official","AreaID":106}},{"type":"Feature","geometry":{"type":"Point","coordinates":[-78.892691,40.057582]},"properties":{"UNIT_CODE":"FLNI","UNIT_NAME":"Flight 93 National Memorial","STATE":"PA","Status":"Official","AreaID":127}},{"type":"Feature","geometry":{"type":"Point","coordinates":[-75.668128,36.017643]},"properties":{"UNIT_CODE":"WRBR","UNIT_NAME":"Wright Brothers National Memorial","STATE":"NC","Status":"Official","AreaID":178}},{"type":"Feature","geometry":{"type":"Point","coordinates":[-110.802139,37.398026]},"properties":{"UNIT_CODE":"GLCA","UNIT_NAME":"Glen Canyon National Recreation Area","STATE":"AZ-UT","Status":"Official","AreaID":62}},{"type":"Feature","geometry":{"type":"Point","coordinates":[-77.035372,38.888482]},"properties":{"UNIT_CODE":"WAMO","UNIT_NAME":"Washington Monument","STATE":"DC","Status":"Official","AreaID":116}},{"type":"Feature","geometry":{"type":"Point","coordinates":[-112.747398,46.414012]},"properties":{"UNIT_CODE":"GRKO","UNIT_NAME":"Grant-Kohrs Ranch National Historic Site","STATE":"MT","Status":"Official","AreaID":91}},{"type":"Feature","geometry":{"type":"Point","coordinates":[-105.505125,37.875527]},"properties":{"UNIT_CODE":"GRSA","UNIT_NAME":"Great Sand Dunes National Preserve","STATE":"CO","Status":"Official","AreaID":68}},{"type":"Feature","geometry":{"type":"Point","coordinates":[-72.534319,43.633499]},"properties":{"UNIT_CODE":"MABI","UNIT_NAME":"Marsh-Billings-Rockefeller National Historical Park","STATE":"VT","Status":"Official","AreaID":43}},{"type":"Feature","geometry":{"type":"Point","coordinates":[-80.940014,32.032805]},"properties":{"UNIT_CODE":"FOPU","UNIT_NAME":"Fort Pulaski National Monument","STATE":"GA","Status":"Official","AreaID":203}},{"type":"Feature","geometry":{"type":"Point","coordinates":[-69.552987,44.004201]},"properties":{"UNIT_CODE":"FRPE","UNIT_NAME":"Frances Perkins National Monument","STATE":"ME","Status":"Official","AreaID":469}},{"type":"Feature","geometry":{"type":"Point","coordinates":[-118.593853,36.874947]},"properties":{"UNIT_CODE":"KICA","UNIT_NAME":"Kings Canyon National Park","STATE":"CA","Status":"Official","AreaID":357}},{"type":"Feature","geometry":{"type":"Point","coordinates":[-89.714758,47.989535]},"properties":{"UNIT_CODE":"GRPO","UNIT_NAME":"Grand Portage National Monument","STATE":"MN","Status":"Official","AreaID":255}},{"type":"Feature","geometry":{"type":"Point","coordinates":[-152.0061,63.703107]},"properties":{"UNIT_CODE":"DENA","UNIT_NAME":"Denali National Preserve","STATE":"AK","Status":"Official","AreaID":406}},{"type":"Feature","geometry":{"type":"Point","coordinates":[-122.134305,42.945072]},"properties":{"UNIT_CODE":"CRLA","UNIT_NAME":"Crater Lake National Park","STATE":"OR","Status":"Official","AreaID":383}},{"type":"Feature","geometry":{"type":"Point","coordinates":[-83.4981,35.622155]},"properties":{"UNIT_CODE":"GRSM","UNIT_NAME":"Great Smoky Mountains National Park","STATE":"TN-NC","Status":"Official","AreaID":206}},{"type":"Feature","geometry":{"type":"Point","coordinates":[-85.255203,34.91927]},"properties":{"UNIT_CODE":"CHCH","UNIT_NAME":"Chickamauga and Chattanooga National Military Park","STATE":"GA-TN","Status":"Official","AreaID":181}},{"type":"Feature","geometry":{"type":"Point","coordinates":[-111.405847,35.564864]},"properties":{"UNIT_CODE":"WUPA","UNIT_NAME":"Wupatki National Monument","STATE":"AZ","Status":"Official","AreaID":312}},{"type":"Feature","geometry":{"type":"Point","coordinates":[-85.678602,32.454864]},"properties":{"UNIT_CODE":"TUAI","UNIT_NAME":"Tuskegee Airmen National Historic Site","STATE":"AL","Status":"Official","AreaID":228}},{"type":"Feature","geometry":{"type":"Point","coordinates":[-108.455615,37.253537]},"properties":{"UNIT_CODE":"MEVE","UNIT_NAME":"Mesa Verde National Park","STATE":"CO","Status":"Official","AreaID":71}},{"type":"Feature","geometry":{"type":"Point","coordinates":[-110.685587,43.826299]},"properties":{"UNIT_CODE":"GRTE","UNIT_NAME":"Grand Teton National Park","STATE":"WY","Status":"Official","AreaID":65}},{"type":"Feature","geometry":{"type":"Point","coordinates":[-93.029972,34.52917]},"properties":{"UNIT_CODE":"HOSP","UNIT_NAME":"Hot Springs National Park","STATE":"AR","Status":"Official","AreaID":298}},{"type":"Feature","geometry":{"type":"Point","coordinates":[-96.324751,44.014019]},"properties":{"UNIT_CODE":"PIPE","UNIT_NAME":"Pipestone National Monument","STATE":"MN","Status":"Official","AreaID":275}},{"type":"Feature","geometry":{"type":"Point","coordinates":[-115.089183,35.333272]},"properties":{"UNIT_CODE":"CAMO","UNIT_NAME":"Castle Mountains National Monument","STATE":"CA","Status":"Official","AreaID":446}},{"type":"Feature","geometry":{"type":"Point","coordinates":[-101.383745,47.353012]},"properties":{"UNIT_CODE":"KNRI","UNIT_NAME":"Knife River Indian Villages National Historic Site","STATE":"ND","Status":"Official","AreaID":47}},{"type":"Feature","geometry":{"type":"Point","coordinates":[-78.314217,38.993734]},"properties":{"UNIT_CODE":"CEBE","UNIT_NAME":"Cedar Creek and Belle Grove National Historical Park","STATE":"VA","Status":"Official","AreaID":137}},{"type":"Feature","geometry":{"type":"Point","coordinates":[-103.831634,43.731001]},"properties":{"UNIT_CODE":"JECA","UNIT_NAME":"Jewel Cave National Monument","STATE":"SD","Status":"Official","AreaID":88}},{"type":"Feature","geometry":{"type":"Point","coordinates":[-81.389098,35.137572]},"properties":{"UNIT_CODE":"KIMO","UNIT_NAME":"Kings Mountain National Military Park","STATE":"SC","Status":"Official","AreaID":209}},{"type":"Feature","geometry":{"type":"Point","coordinates":[-78.463952,38.47243]},"properties":{"UNIT_CODE":"SHEN","UNIT_NAME":"Shenandoah National Park","STATE":"VA","Status":"Official","AreaID":161}},{"type":"Feature","geometry":{"type":"Point","coordinates":[-80.218304,25.469694]},"properties":{"UNIT_CODE":"BISC","UNIT_NAME":"Biscayne National Park","STATE":"FL","Status":"Official","AreaID":184}},{"type":"Feature","geometry":{"type":"Point","coordinates":[-73.941829,41.797554]},"properties":{"UNIT_CODE":"VAMA","UNIT_NAME":"Vanderbilt Mansion National Historic Site","STATE":"NY","Status":"Official","AreaID":21}},{"type":"Feature","geometry":{"type":"Point","coordinates":[-77.037201,38.528888]},"properties":{"UNIT_CODE":"THST","UNIT_NAME":"Thomas Stone National Historic Site","STATE":"MD","Status":"Official","AreaID":162}},{"type":"Feature","geometry":{"type":"Point","coordinates":[-79.824765,32.845604]},"properties":{"UNIT_CODE":"CHPI","UNIT_NAME":"Charles Pinckney National Historic Site","STATE":"SC","Status":"Official","AreaID":231}},{"type":"Feature","geometry":{"type":"Point","coordinates":[-77.04309,38.883491]},"properties":{"UNIT_CODE":"FRDE","UNIT_NAME":"Franklin Delano Roosevelt Memorial","STATE":"DC","Status":"Official","AreaID":112}},{"type":"Feature","geometry":{"type":"Point","coordinates":[-68.691588,45.946158]},"properties":{"UNIT_CODE":"KAWW","UNIT_NAME":"Katahdin Woods and Waters National Monument","STATE":"ME","Status":"Official","AreaID":449}},{"type":"Feature","geometry":{"type":"Point","coordinates":[-143.136281,65.058595]},"properties":{"UNIT_CODE":"YUCH","UNIT_NAME":"Yukon-Charley Rivers National Preserve","STATE":"AK","Status":"Official","AreaID":423}},{"type":"Feature","geometry":{"type":"Point","coordinates":[-83.135046,39.27882]},"properties":{"UNIT_CODE":"HOCU","UNIT_NAME":"Hopewell Culture National Historical Park","STATE":"OH","Status":"Official","AreaID":272}},{"type":"Feature","geometry":{"type":"Point","coordinates":[-114.939684,42.812804]},"properties":{"UNIT_CODE":"HAFO","UNIT_NAME":"Hagerman Fossil Beds National Monument","STATE":"ID","Status":"Official","AreaID":399}},{"type":"Feature","geometry":{"type":"Point","coordinates":[-105.01206,35.907359]},"properties":{"UNIT_CODE":"FOUN","UNIT_NAME":"Fort Union National Monument","STATE":"NM","Status":"Official","AreaID":295}},{"type":"Feature","geometry":{"type":"Point","coordinates":[-101.669558,35.582086]},"properties":{"UNIT_CODE":"ALFL","UNIT_NAME":"Alibates Flint Quarries National Monument","STATE":"TX","Status":"Official","AreaID":318}},{"type":"Feature","geometry":{"type":"Point","coordinates":[-75.245821,38.04622]},"properties":{"UNIT_CODE":"ASIS","UNIT_NAME":"Assateague Island National Seashore","STATE":"MD-VA 2/","Status":"Official","AreaID":134}},{"type":"Feature","geometry":{"type":"Point","coordinates":[-72.58106,42.108367]},"properties":{"UNIT_CODE":"SPAR","UNIT_NAME":"Springfield Armory National Historic Site","STATE":"MA","Status":"Official","AreaID":3}},{"type":"Feature","geometry":{"type":"Point","coordinates":[-74.041134,40.698326]},"properties":{"UNIT_CODE":"STLI","UNIT_NAME":"Statue of Liberty National Monument","STATE":"NY-NJ","Status":"Official","AreaID":24}},{"type":"Feature","geometry":{"type":"Point","coordinates":[-78.773519,40.346894]},"properties":{"UNIT_CODE":"JOFL","UNIT_NAME":"Johnstown Flood National Memorial","STATE":"PA","Status":"Official","AreaID":130}},{"type":"Feature","geometry":{"type":"Point","coordinates":[-109.448159,32.149326]},"properties":{"UNIT_CODE":"FOBO","UNIT_NAME":"Fort Bowie National Historic Site","STATE":"AZ","Status":"Official","AreaID":363}},{"type":"Feature","geometry":{"type":"Point","coordinates":[-81.042938,37.896974]},"properties":{"UNIT_CODE":"NERI","UNIT_NAME":"New River Gorge National Park and Preserve","STATE":"WV","Status":"Legacy","AreaID":158}},{"type":"Feature","geometry":{"type":"Point","coordinates":[-155.82069,20.027568]},"properties":{"UNIT_CODE":"PUHE","UNIT_NAME":"Pu'ukohola Heiau National Historic Site","STATE":"HI","Status":"Official","AreaID":340}},{"type":"Feature","geometry":{"type":"Point","coordinates":[-109.883157,38.272079]},"properties":{"UNIT_CODE":"CANY","UNIT_NAME":"Canyonlands National Park","STATE":"UT","Status":"Official","AreaID":51}},{"type":"Feature","geometry":{"type":"Point","coordinates":[-77.062764,38.896104]},"properties":{"UNIT_CODE":"THIS","UNIT_NAME":"Theodore Roosevelt Island","STATE":"DC","Status":"Official","AreaID":109}},{"type":"Feature","geometry":{"type":"Point","coordinates":[-122.423757,37.810475]},"properties":{"UNIT_CODE":"SAFR","UNIT_NAME":"San Francisco Maritime National Historical Park","STATE":"CA","Status":"Official","AreaID":377}},{"type":"Feature","geometry":{"type":"Point","coordinates":[-104.900805,31.906857]},"properties":{"UNIT_CODE":"GUMO","UNIT_NAME":"Guadalupe Mountains National Park","STATE":"TX","Status":"Official","AreaID":292}},{"type":"Feature","geometry":{"type":"Point","coordinates":[-158.097283,56.901268]},"properties":{"UNIT_CODE":"ANIA","UNIT_NAME":"Aniakchak National Monument","STATE":"AK","Status":"Official","AreaID":403}},{"type":"Feature","geometry":{"type":"Point","coordinates":[-80.578322,32.388416]},"properties":{"UNIT_CODE":"REER","UNIT_NAME":"Reconstruction Era National Historical Park","STATE":"SC","Status":"Official","AreaID":453}},{"type":"Feature","geometry":{"type":"Point","coordinates":[-93.409168,37.099736]},"properties":{"UNIT_CODE":"WICR","UNIT_NAME":"Wilson's Creek National Battlefield","STATE":"MO","Status":"Official","AreaID":252}},{"type":"Feature","geometry":{"type":"Point","coordinates":[-155.89781,19.409212]},"properties":{"UNIT_CODE":"PUHO","UNIT_NAME":"Pu'uhonua o Honaunau National Historical Park","STATE":"HI","Status":"Official","AreaID":337}},{"type":"Feature","geometry":{"type":"Point","coordinates":[-111.532658,32.996942]},"properties":{"UNIT_CODE":"CAGR","UNIT_NAME":"Casa Grande Ruins National Monument","STATE":"AZ","Status":"Official","AreaID":360}},{"type":"Feature","geometry":{"type":"Point","coordinates":[-75.149422,39.951686]},"properties":{"UNIT_CODE":"INDE","UNIT_NAME":"Independence National Historical Park","STATE":"PA","Status":"Official","AreaID":153}},{"type":"Feature","geometry":{"type":"Point","coordinates":[-96.997688,34.455516]},"properties":{"UNIT_CODE":"CHIC","UNIT_NAME":"Chickasaw National Recreation Area","STATE":"OK","Status":"Official","AreaID":315}},{"type":"Feature","geometry":{"type":"Point","coordinates":[-74.179278,40.916908]},"properties":{"UNIT_CODE":"PAGR","UNIT_NAME":"Paterson Great Falls National Historical Park","STATE":"NJ","Status":"Official","AreaID":426}},{"type":"Feature","geometry":{"type":"Point","coordinates":[-113.506096,43.404396]},"properties":{"UNIT_CODE":"CRMO","UNIT_NAME":"Craters of the Moon National Monument","STATE":"ID","Status":"Official","AreaID":380}},{"type":"Feature","geometry":{"type":"Point","coordinates":[-85.616632,34.395872]},"properties":{"UNIT_CODE":"LIRI","UNIT_NAME":"Little River Canyon National Preserve","STATE":"AL","Status":"Official","AreaID":225}},{"type":"Feature","geometry":{"type":"Point","coordinates":[-121.173379,36.475381]},"properties":{"UNIT_CODE":"PINN","UNIT_NAME":"Pinnacles National Park","STATE":"CA","Status":"Official","AreaID":349}},{"type":"Feature","geometry":{"type":"Point","coordinates":[-71.070645,42.357893]},"properties":{"UNIT_CODE":"BOAF","UNIT_NAME":"Boston African American National Historic Site","STATE":"MA","Status":"Official","AreaID":33}},{"type":"Feature","geometry":{"type":"Point","coordinates":[-121.374468,41.887292]},"properties":{"UNIT_CODE":"TULE","UNIT_NAME":"Tule Lake National Monument","STATE":"CA","Status":"Official","AreaID":456}},{"type":"Feature","geometry":{"type":"Point","coordinates":[-94.029893,36.452619]},"properties":{"UNIT_CODE":"PERI","UNIT_NAME":"Pea Ridge National Military Park","STATE":"AR","Status":"Official","AreaID":301}},{"type":"Feature","geometry":{"type":"Point","coordinates":[-81.452105,30.475748]},"properties":{"UNIT_CODE":"TIMU","UNIT_NAME":"Timucuan Ecological and Historic Preserve","STATE":"FL","Status":"Legacy","AreaID":195}},{"type":"Feature","geometry":{"type":"Point","coordinates":[-75.149989,39.961951]},"properties":{"UNIT_CODE":"EDAL","UNIT_NAME":"Edgar Allan Poe National Historic Site","STATE":"PA","Status":"Official","AreaID":141}},{"type":"Feature","geometry":{"type":"Point","coordinates":[-153.269882,67.76226]},"properties":{"UNIT_CODE":"GAAR","UNIT_NAME":"Gates of the Arctic National Park","STATE":"AK","Status":"Official","AreaID":409}},{"type":"Feature","geometry":{"type":"Point","coordinates":[-107.427738,45.56545]},"properties":{"UNIT_CODE":"LIBI","UNIT_NAME":"Little Bighorn Battlefield National Monument","STATE":"MT","Status":"Official","AreaID":57}},{"type":"Feature","geometry":{"type":"Point","coordinates":[-92.885548,48.465683]},"properties":{"UNIT_CODE":"VOYA","UNIT_NAME":"Voyageurs National Park","STATE":"MN","Status":"Official","AreaID":281}},{"type":"Feature","geometry":{"type":"Point","coordinates":[-75.444679,40.1005]},"properties":{"UNIT_CODE":"VAFO","UNIT_NAME":"Valley Forge National Historical Park","STATE":"PA","Status":"Official","AreaID":165}},{"type":"Feature","geometry":{"type":"Point","coordinates":[-107.977745,34.786249]},"properties":{"UNIT_CODE":"ELMA","UNIT_NAME":"El Malpais National Monument","STATE":"NM","Status":"Official","AreaID":325}},{"type":"Feature","geometry":{"type":"Point","coordinates":[-84.675546,36.522663]},"properties":{"UNIT_CODE":"BISO","UNIT_NAME":"Big South Fork National River and Recreation Area","STATE":"KY-TN","Status":"Legacy","AreaID":173}},{"type":"Feature","geometry":{"type":"Point","coordinates":[-75.560312,39.836152]},"properties":{"UNIT_CODE":"FRST","UNIT_NAME":"First State National Historical Park","STATE":"DE-PA","Status":"Official","AreaID":429}},{"type":"Feature","geometry":{"type":"Point","coordinates":[-70.885659,42.519169]},"properties":{"UNIT_CODE":"SAMA","UNIT_NAME":"Salem Maritime National Historical Park","STATE":"MA","Status":"Official","AreaID":9}},{"type":"Feature","geometry":{"type":"Point","coordinates":[-121.52135,41.761503]},"properties":{"UNIT_CODE":"LABE","UNIT_NAME":"Lava Beds National Monument","STATE":"CA","Status":"Official","AreaID":346}},{"type":"Feature","geometry":{"type":"Point","coordinates":[-98.454675,29.332736]},"properties":{"UNIT_CODE":"SAAN","UNIT_NAME":"San Antonio Missions National Historical Park","STATE":"TX","Status":"Official","AreaID":321}},{"type":"Feature","geometry":{"type":"Point","coordinates":[-87.032881,41.659592]},"properties":{"UNIT_CODE":"INDU","UNIT_NAME":"Indiana Dunes National Park","STATE":"IN","Status":"Official","AreaID":258}},{"type":"Feature","geometry":{"type":"Point","coordinates":[-77.018795,38.887144]},"properties":{"UNIT_CODE":"DDEM","UNIT_NAME":"Dwight D. Eisenhower Memorial","STATE":"DC","Status":"Official","AreaID":459}},{"type":"Feature","geometry":{"type":"Point","coordinates":[-111.142734,38.170608]},"properties":{"UNIT_CODE":"CARE","UNIT_NAME":"Capitol Reef National Park","STATE":"UT","Status":"Official","AreaID":80}},{"type":"Feature","geometry":{"type":"Point","coordinates":[-155.391766,59.07786]},"properties":{"UNIT_CODE":"KATM","UNIT_NAME":"Katmai National Preserve","STATE":"AK","Status":"Official","AreaID":412}},{"type":"Feature","geometry":{"type":"Point","coordinates":[-116.274792,45.796385]},"properties":{"UNIT_CODE":"NEPE","UNIT_NAME":"Nez Perce National Historical Park","STATE":"MT-ID-OR-WA","Status":"Legacy","AreaID":388}},{"type":"Feature","geometry":{"type":"Point","coordinates":[-73.900609,41.763387]},"properties":{"UNIT_CODE":"ELRO","UNIT_NAME":"Eleanor Roosevelt National Historic Site","STATE":"NY","Status":"Official","AreaID":12}},{"type":"Feature","geometry":{"type":"Point","coordinates":[-72.714806,42.072588]},"properties":{"UNIT_CODE":"NEEN","UNIT_NAME":"New England National Scenic Trail","STATE":"CT TO MA","Status":"Official","AreaID":433}},{"type":"Feature","geometry":{"type":"Point","coordinates":[-92.752318,45.233962]},"properties":{"UNIT_CODE":"LOSA","UNIT_NAME":"Lower Saint Croix National Scenic Riverway","STATE":"MN-WI","Status":"Official","AreaID":278}},{"type":"Feature","geometry":{"type":"Point","coordinates":[-114.380534,36.244555]},"properties":{"UNIT_CODE":"LAKE","UNIT_NAME":"Lake Mead National Recreation Area","STATE":"AZ-NV","Status":"Official","AreaID":343}},{"type":"Feature","geometry":{"type":"Point","coordinates":[-110.618438,32.170723]},"properties":{"UNIT_CODE":"SAGU","UNIT_NAME":"Saguaro National Park","STATE":"AZ","Status":"Official","AreaID":366}},{"type":"Feature","geometry":{"type":"Point","coordinates":[-77.022212,38.889836]},"properties":{"UNIT_CODE":"MALL","UNIT_NAME":"National Mall","STATE":"DC","Status":"Official","AreaID":97}},{"type":"Feature","geometry":{"type":"Point","coordinates":[-135.292658,59.631595]},"properties":{"UNIT_CODE":"KLGO","UNIT_NAME":"Klondike Gold Rush National Historical Park","STATE":"AK-WA","Status":"Official","AreaID":415}},{"type":"Feature","geometry":{"type":"Point","coordinates":[-81.569692,41.209203]},"properties":{"UNIT_CODE":"CUVA","UNIT_NAME":"Cuyahoga Valley National Park","STATE":"OH","Status":"Official","AreaID":234}},{"type":"Feature","geometry":{"type":"Point","coordinates":[-86.378849,46.548294]},"properties":{"UNIT_CODE":"PIRO","UNIT_NAME":"Pictured Rocks National Lakeshore","STATE":"MI","Status":"Official","AreaID":261}},{"type":"Feature","geometry":{"type":"Point","coordinates":[-76.560875,42.911574]},"properties":{"UNIT_CODE":"HART","UNIT_NAME":"Harriet Tubman National Historical Park","STATE":"NY","Status":"Official","AreaID":438}},{"type":"Feature","geometry":{"type":"Point","coordinates":[-85.642493,37.612073]},"properties":{"UNIT_CODE":"ABLI","UNIT_NAME":"Abraham Lincoln Birthplace National Historical Park","STATE":"KY","Status":"Official","AreaID":213}},{"type":"Feature","geometry":{"type":"Point","coordinates":[-80.954841,25.282573]},"properties":{"UNIT_CODE":"EVER","UNIT_NAME":"Everglades National Park","STATE":"FL 6/","Status":"Official","AreaID":187}},{"type":"Feature","geometry":{"type":"Point","coordinates":[-103.426328,38.039969]},"properties":{"UNIT_CODE":"BEOL","UNIT_NAME":"Bent's Old Fort National Historic Site","STATE":"CO","Status":"Official","AreaID":77}},{"type":"Feature","geometry":{"type":"Point","coordinates":[-77.017524,38.892831]},"properties":{"UNIT_CODE":"PAAV","UNIT_NAME":"Pennsylvania Avenue National Historic Site","STATE":"DC","Status":"Official","AreaID":100}},{"type":"Feature","geometry":{"type":"Point","coordinates":[-77.381031,38.585582]},"properties":{"UNIT_CODE":"PRWI","UNIT_NAME":"Prince William Forest Park","STATE":"VA","Status":"Official","AreaID":122}},{"type":"Feature","geometry":{"type":"Point","coordinates":[-121.706444,46.854653]},"properties":{"UNIT_CODE":"MORA","UNIT_NAME":"Mount Rainier National Park","STATE":"WA","Status":"Official","AreaID":391}},{"type":"Feature","geometry":{"type":"Point","coordinates":[-112.028338,34.773928]},"properties":{"UNIT_CODE":"TUZI","UNIT_NAME":"Tuzigoot National Monument","STATE":"AZ","Status":"Official","AreaID":369}},{"type":"Feature","geometry":{"type":"Point","coordinates":[-108.001728,36.835489]},"properties":{"UNIT_CODE":"AZRU","UNIT_NAME":"Aztec Ruins National Monument","STATE":"NM","Status":"Official","AreaID":304}},{"type":"Feature","geometry":{"type":"Point","coordinates":[-77.003863,38.892331]},"properties":{"UNIT_CODE":"BEPA","UNIT_NAME":"Belmont-Paul Women's Equality National Monument","STATE":"DC","Status":"Official","AreaID":94}},{"type":"Feature","geometry":{"type":"Point","coordinates":[-81.500486,30.384021]},"properties":{"UNIT_CODE":"FOCA","UNIT_NAME":"Fort Caroline National Memorial","STATE":"FL","Status":"Official","AreaID":192}},{"type":"Feature","geometry":{"type":"Point","coordinates":[-73.963082,40.813441]},"properties":{"UNIT_CODE":"GEGR","UNIT_NAME":"General Grant National Memorial","STATE":"NY","Status":"Official","AreaID":30}},{"type":"Feature","geometry":{"type":"Point","coordinates":[-81.072765,38.192443]},"properties":{"UNIT_CODE":"GARI","UNIT_NAME":"Gauley River National Recreation Area","STATE":"WV","Status":"Official","AreaID":144}},{"type":"Feature","geometry":{"type":"Point","coordinates":[-73.989014,40.738601]},"properties":{"UNIT_CODE":"THRB","UNIT_NAME":"Theodore Roosevelt Birthplace National Historic Site","STATE":"NY","Status":"Official","AreaID":27}},{"type":"Feature","geometry":{"type":"Point","coordinates":[-107.743702,38.57941]},"properties":{"UNIT_CODE":"BLCA","UNIT_NAME":"Black Canyon of the Gunnison National Park","STATE":"CO","Status":"Official","AreaID":54}},{"type":"Feature","geometry":{"type":"Point","coordinates":[-93.006228,31.665032]},"properties":{"UNIT_CODE":"CARI","UNIT_NAME":"Cane River Creole National Historical Park","STATE":"LA","Status":"Official","AreaID":284}},{"type":"Feature","geometry":{"type":"Point","coordinates":[-96.907649,42.733037]},"properties":{"UNIT_CODE":"MNRR","UNIT_NAME":"Missouri National Recreational River","STATE":"SD-NE","Status":"Official","AreaID":74}},{"type":"Feature","geometry":{"type":"Point","coordinates":[-89.480183,41.836236]},"properties":{"UNIT_CODE":"RRBH","UNIT_NAME":"Ronald Reagan Boyhood Home National Historic Site","STATE":"IL","Status":"Official","AreaID":264}},{"type":"Feature","geometry":{"type":"Point","coordinates":[-81.375935,40.796631]},"properties":{"UNIT_CODE":"FILA","UNIT_NAME":"First Ladies National Historic Site","STATE":"OH","Status":"Official","AreaID":237}},{"type":"Feature","geometry":{"type":"Point","coordinates":[-88.728901,34.506125]},"properties":{"UNIT_CODE":"BRCR","UNIT_NAME":"Brices Cross Roads National Battlefield Site","STATE":"MS","Status":"Official","AreaID":217}},{"type":"Feature","geometry":{"type":"Point","coordinates":[-76.985107,38.862827]},"properties":{"UNIT_CODE":"FRDO","UNIT_NAME":"Frederick Douglass National Historic Site","STATE":"DC","Status":"Official","AreaID":119}},{"type":"Feature","geometry":{"type":"Point","coordinates":[-71.011818,42.256537]},"properties":{"UNIT_CODE":"ADAM","UNIT_NAME":"Adams National Historical Park","STATE":"MA","Status":"Official","AreaID":6}},{"type":"Feature","geometry":{"type":"Point","coordinates":[-80.747776,28.778219]},"properties":{"UNIT_CODE":"CANA","UNIT_NAME":"Canaveral National Seashore","STATE":"FL","Status":"Official","AreaID":168}},{"type":"Feature","geometry":{"type":"Point","coordinates":[-117.24099,32.672208]},"properties":{"UNIT_CODE":"CABR","UNIT_NAME":"Cabrillo National Monument","STATE":"CA","Status":"Official","AreaID":329}},{"type":"Feature","geometry":{"type":"Point","coordinates":[-118.465101,46.042934]},"properties":{"UNIT_CODE":"WHMI","UNIT_NAME":"Whitman Mission National Historic Site","STATE":"WA","Status":"Official","AreaID":397}},{"type":"Feature","geometry":{"type":"Point","coordinates":[-142.286598,62.222566]},"properties":{"UNIT_CODE":"WRST","UNIT_NAME":"Wrangell-St. Elias National Preserve","STATE":"AK","Status":"Official","AreaID":421}},{"type":"Feature","geometry":{"type":"Point","coordinates":[-118.153032,36.726999]},"properties":{"UNIT_CODE":"MANZ","UNIT_NAME":"Manzanar National Historic Site","STATE":"CA","Status":"Official","AreaID":372}},{"type":"Feature","geometry":{"type":"Point","coordinates":[-155.904832,19.404183]},"properties":{"UNIT_CODE":"ALKA","UNIT_NAME":"Ala Kahakai National Historic Trail","STATE":"HI","Status":"Official","AreaID":447}},{"type":"Feature","geometry":{"type":"Point","coordinates":[-106.45475,31.767123]},"properties":{"UNIT_CODE":"CHAM","UNIT_NAME":"Chamizal National Memorial","STATE":"TX","Status":"Official","AreaID":293}},{"type":"Feature","geometry":{"type":"Point","coordinates":[-113.045728,37.279525]},"properties":{"UNIT_CODE":"ZION","UNIT_NAME":"Zion National Park","STATE":"UT","Status":"Official","AreaID":83}},{"type":"Feature","geometry":{"type":"Point","coordinates":[-99.617851,39.390367]},"properties":{"UNIT_CODE":"NICO","UNIT_NAME":"Nicodemus National Historic Site","STATE":"KS","Status":"Official","AreaID":247}},{"type":"Feature","geometry":{"type":"Point","coordinates":[-78.517664,40.431389]},"properties":{"UNIT_CODE":"ALPO","UNIT_NAME":"Allegheny Portage Railroad National Historic Site","STATE":"PA","Status":"Official","AreaID":128}},{"type":"Feature","geometry":{"type":"Point","coordinates":[-87.535462,38.679019]},"properties":{"UNIT_CODE":"GERO","UNIT_NAME":"George Rogers Clark National Historical Park","STATE":"IN","Status":"Official","AreaID":267}},{"type":"Feature","geometry":{"type":"Point","coordinates":[-75.147322,39.943461]},"properties":{"UNIT_CODE":"THKO","UNIT_NAME":"Thaddeus Kosciuszko National Memorial","STATE":"PA","Status":"Official","AreaID":154}},{"type":"Feature","geometry":{"type":"Point","coordinates":[-77.063263,38.710105]},"properties":{"UNIT_CODE":"GWMP","UNIT_NAME":"George Washington Memorial Parkway","STATE":"MD-VA","Status":"Official","AreaID":107}},{"type":"Feature","geometry":{"type":"Point","coordinates":[-86.43356,35.873261]},"properties":{"UNIT_CODE":"STRI","UNIT_NAME":"Stones River National Battlefield","STATE":"TN","Status":"Official","AreaID":220}},{"type":"Feature","geometry":{"type":"Point","coordinates":[-157.938514,21.366997]},"properties":{"UNIT_CODE":"PERL","UNIT_NAME":"Pearl Harbor National Memorial","STATE":"HI","Status":"Official","AreaID":375}},{"type":"Feature","geometry":{"type":"Point","coordinates":[-81.456505,30.819419]},"properties":{"UNIT_CODE":"CUIS","UNIT_NAME":"Cumberland Island National Seashore","STATE":"GA","Status":"Official","AreaID":223}},{"type":"Feature","geometry":{"type":"Point","coordinates":[-94.355521,36.986646]},"properties":{"UNIT_CODE":"GWCA","UNIT_NAME":"George Washington Carver National Monument","STATE":"MO","Status":"Official","AreaID":250}},{"type":"Feature","geometry":{"type":"Point","coordinates":[-77.025652,38.896674]},"properties":{"UNIT_CODE":"FOTH","UNIT_NAME":"Ford's Theatre National Historic Site","STATE":"DC","Status":"Official","AreaID":113}},{"type":"Feature","geometry":{"type":"Point","coordinates":[-74.016419,40.691675]},"properties":{"UNIT_CODE":"GOIS","UNIT_NAME":"Governors Island National Monument","STATE":"NY","Status":"Official","AreaID":36}},{"type":"Feature","geometry":{"type":"Point","coordinates":[-155.834271,59.055515]},"properties":{"UNIT_CODE":"ALAG","UNIT_NAME":"Alagnak Wild River","STATE":"AK","Status":"Official","AreaID":401}},{"type":"Feature","geometry":{"type":"Point","coordinates":[-64.619944,17.808795]},"properties":{"UNIT_CODE":"BUIS","UNIT_NAME":"Buck Island Reef National Monument","STATE":"VI","Status":"Official","AreaID":198}},{"type":"Feature","geometry":{"type":"Point","coordinates":[-77.030967,38.908191]},"properties":{"UNIT_CODE":"MABE","UNIT_NAME":"Mary McLeod Bethune Council House National Historic Site","STATE":"DC","Status":"Official","AreaID":104}},{"type":"Feature","geometry":{"type":"Point","coordinates":[-122.027434,37.826421]},"properties":{"UNIT_CODE":"EUON","UNIT_NAME":"Eugene O'Neill National Historic Site","STATE":"CA","Status":"Official","AreaID":335}},{"type":"Feature","geometry":{"type":"Point","coordinates":[-77.263702,38.937906]},"properties":{"UNIT_CODE":"WOTR","UNIT_NAME":"Wolf Trap National Park for the Performing Arts","STATE":"VA","Status":"Official","AreaID":125}},{"type":"Feature","geometry":{"type":"Point","coordinates":[-97.341075,26.705811]},"properties":{"UNIT_CODE":"PAIS","UNIT_NAME":"Padre Island National Seashore","STATE":"TX","Status":"Official","AreaID":313}},{"type":"Feature","geometry":{"type":"Point","coordinates":[-77.267323,39.796425]},"properties":{"UNIT_CODE":"EISE","UNIT_NAME":"Eisenhower National Historic Site","STATE":"PA","Status":"Official","AreaID":151}},{"type":"Feature","geometry":{"type":"Point","coordinates":[-103.973055,36.781652]},"properties":{"UNIT_CODE":"CAVO","UNIT_NAME":"Capulin Volcano National Monument","STATE":"NM","Status":"Official","AreaID":290}},{"type":"Feature","geometry":{"type":"Point","coordinates":[-104.547146,42.202436]},"properties":{"UNIT_CODE":"FOLA","UNIT_NAME":"Fort Laramie National Historic Site","STATE":"WY","Status":"Official","AreaID":60}},{"type":"Feature","geometry":{"type":"Point","coordinates":[-79.843471,36.131366]},"properties":{"UNIT_CODE":"GUCO","UNIT_NAME":"Guilford Courthouse National Military Park","STATE":"NC","Status":"Official","AreaID":176}},{"type":"Feature","geometry":{"type":"Point","coordinates":[-103.707087,41.83499]},"properties":{"UNIT_CODE":"SCBL","UNIT_NAME":"Scotts Bluff National Monument","STATE":"NE","Status":"Official","AreaID":270}},{"type":"Feature","geometry":{"type":"Point","coordinates":[-119.648294,44.538269]},"properties":{"UNIT_CODE":"JODA","UNIT_NAME":"John Day Fossil Beds National Monument","STATE":"OR","Status":"Official","AreaID":378}},{"type":"Feature","geometry":{"type":"Point","coordinates":[-70.923245,41.635498]},"properties":{"UNIT_CODE":"NEBE","UNIT_NAME":"New Bedford Whaling National Historical Park","STATE":"MA","Status":"Official","AreaID":40}},{"type":"Feature","geometry":{"type":"Point","coordinates":[-102.519315,38.563033]},"properties":{"UNIT_CODE":"SAND","UNIT_NAME":"Sand Creek Massacre National Historic Site","STATE":"CO","Status":"Official","AreaID":66}},{"type":"Feature","geometry":{"type":"Point","coordinates":[-73.825659,40.892726]},"properties":{"UNIT_CODE":"SAPA","UNIT_NAME":"Saint Paul's Church National Historic Site","STATE":"NY","Status":"Official","AreaID":16}},{"type":"Feature","geometry":{"type":"Point","coordinates":[-77.730591,38.294434]},"properties":{"UNIT_CODE":"FRSP","UNIT_NAME":"Fredericksburg and Spotsylvania County Battlefields Memorial National Military Park","STATE":"VA","Status":"Official","AreaID":147}},{"type":"Feature","geometry":{"type":"Point","coordinates":[-89.641315,39.804417]},"properties":{"UNIT_CODE":"SPRA","UNIT_NAME":"Springfield 1908 Race Riot National Monument","STATE":"IL","Status":"Official","AreaID":467}},{"type":"Feature","geometry":{"type":"Point","coordinates":[-108.346421,35.038952]},"properties":{"UNIT_CODE":"ELMO","UNIT_NAME":"El Morro National Monument","STATE":"NM","Status":"Official","AreaID":307}},{"type":"Feature","geometry":{"type":"Point","coordinates":[-87.860382,36.485721]},"properties":{"UNIT_CODE":"FODO","UNIT_NAME":"Fort Donelson National Battlefield","STATE":"TN-KY","Status":"Official","AreaID":201}},{"type":"Feature","geometry":{"type":"Point","coordinates":[-118.798466,34.11037]},"properties":{"UNIT_CODE":"SAMO","UNIT_NAME":"Santa Monica Mountains National Recreation Area","STATE":"CA","Status":"Official","AreaID":355}},{"type":"Feature","geometry":{"type":"Point","coordinates":[-111.503573,35.166558]},"properties":{"UNIT_CODE":"WACA","UNIT_NAME":"Walnut Canyon National Monument","STATE":"AZ","Status":"Official","AreaID":310}},{"type":"Feature","geometry":{"type":"Point","coordinates":[-91.347258,34.020897]},"properties":{"UNIT_CODE":"ARPO","UNIT_NAME":"Arkansas Post National Memorial","STATE":"AR","Status":"Official","AreaID":287}},{"type":"Feature","geometry":{"type":"Point","coordinates":[-90.958337,39.696135]},"properties":{"UNIT_CODE":"NEPH","UNIT_NAME":"New Philadelphia National Historic Site","STATE":"IL","Status":"Official","AreaID":464}},{"type":"Feature","geometry":{"type":"Point","coordinates":[-75.603519,35.236957]},"properties":{"UNIT_CODE":"CAHA","UNIT_NAME":"Cape Hatteras National Seashore","STATE":"NC","Status":"Legacy","AreaID":179}},{"type":"Feature","geometry":{"type":"Point","coordinates":[-85.814618,34.974486]},"properties":{"UNIT_CODE":"RUCA","UNIT_NAME":"Russell Cave National Monument","STATE":"AL","Status":"Official","AreaID":226}},{"type":"Feature","geometry":{"type":"Point","coordinates":[-122.6876,37.946843]},"properties":{"UNIT_CODE":"GOGA","UNIT_NAME":"Golden Gate National Recreation Area","STATE":"CA","Status":"Official","AreaID":332}},{"type":"Feature","geometry":{"type":"Point","coordinates":[-110.965521,37.077893]},"properties":{"UNIT_CODE":"RABR","UNIT_NAME":"Rainbow Bridge National Monument","STATE":"UT","Status":"Official","AreaID":63}},{"type":"Feature","geometry":{"type":"Point","coordinates":[-76.844411,42.90271]},"properties":{"UNIT_CODE":"WORI","UNIT_NAME":"Women's Rights National Historical Park","STATE":"NY","Status":"Official","AreaID":44}},{"type":"Feature","geometry":{"type":"Point","coordinates":[-121.069708,48.787906]},"properties":{"UNIT_CODE":"ROLA","UNIT_NAME":"Ross Lake National Recreation Area","STATE":"WA","Status":"Official","AreaID":394}},{"type":"Feature","geometry":{"type":"Point","coordinates":[-72.96624,40.703156]},"properties":{"UNIT_CODE":"FIIS","UNIT_NAME":"Fire Island National Seashore","STATE":"NY","Status":"Legacy","AreaID":19}},{"type":"Feature","geometry":{"type":"Point","coordinates":[-84.393379,35.935929]},"properties":{"UNIT_CODE":"MAPR","UNIT_NAME":"Manhattan Project National Historical Park","STATE":"NM-TN-WA","Status":"Official","AreaID":444}},{"type":"Feature","geometry":{"type":"Point","coordinates":[-153.261871,60.588583]},"properties":{"UNIT_CODE":"LACL","UNIT_NAME":"Lake Clark National Park","STATE":"AK","Status":"Official","AreaID":418}},{"type":"Feature","geometry":{"type":"Point","coordinates":[-91.208276,43.091396]},"properties":{"UNIT_CODE":"EFMO","UNIT_NAME":"Effigy Mounds National Monument","STATE":"IA","Status":"Official","AreaID":243}},{"type":"Feature","geometry":{"type":"Point","coordinates":[-79.879474,32.753374]},"properties":{"UNIT_CODE":"FOSU","UNIT_NAME":"Fort Sumter and Fort Moultrie National Historical Park","STATE":"SC","Status":"Official","AreaID":204}},{"type":"Feature","geometry":{"type":"Point","coordinates":[-111.709406,40.440403]},"properties":{"UNIT_CODE":"TICA","UNIT_NAME":"Timpanogos Cave National Monument","STATE":"UT","Status":"Official","AreaID":86}},{"type":"Feature","geometry":{"type":"Point","coordinates":[-122.132345,37.981672]},"properties":{"UNIT_CODE":"JOMU","UNIT_NAME":"John Muir National Historic Site","STATE":"CA","Status":"Official","AreaID":352}},{"type":"Feature","geometry":{"type":"Point","coordinates":[-82.480756,35.988865]},"properties":{"UNIT_CODE":"APPA","UNIT_NAME":"Appalachian National Scenic Trail","STATE":"ME TO GA 4/","Status":"Official","AreaID":132}},{"type":"Feature","geometry":{"type":"Point","coordinates":[-87.604861,41.704683]},"properties":{"UNIT_CODE":"PULL","UNIT_NAME":"Pullman National Historical Park","STATE":"IL","Status":"Official","AreaID":441}},{"type":"Feature","geometry":{"type":"Point","coordinates":[-102.393955,43.83407]},"properties":{"UNIT_CODE":"BADL","UNIT_NAME":"Badlands National Park","STATE":"SD","Status":"Official","AreaID":49}},{"type":"Feature","geometry":{"type":"Point","coordinates":[-77.028718,38.710574]},"properties":{"UNIT_CODE":"FOWA","UNIT_NAME":"Fort Washington Park","STATE":"MD","Status":"Official","AreaID":95}},{"type":"Feature","geometry":{"type":"Point","coordinates":[-96.832428,40.288747]},"properties":{"UNIT_CODE":"HOME","UNIT_NAME":"Homestead National Historical Park","STATE":"NE","Status":"Official","AreaID":259}},{"type":"Feature","geometry":{"type":"Point","coordinates":[-71.055378,42.373274]},"properties":{"UNIT_CODE":"BOST","UNIT_NAME":"Boston National Historical Park","STATE":"MA","Status":"Official","AreaID":1}},{"type":"Feature","geometry":{"type":"Point","coordinates":[-71.055378,42.373274]},"properties":{"UNIT_CODE":"BOST","UNIT_NAME":"Boston National Historical Park","STATE":"MA","Status":"Official","AreaID":1}},{"type":"Feature","geometry":{"type":"Point","coordinates":[-71.055378,42.373274]},"properties":{"UNIT_CODE":"BOST","UNIT_NAME":"Boston National Historical Park","STATE":"MA","Status":"Official","AreaID":1}},{"type":"Feature","geometry":{"type":"Point","coordinates":[-71.055378,42.373274]},"properties":{"UNIT_CODE":"BOST","UNIT_NAME":"Boston National Historical Park","STATE":"MA","Status":"Official","AreaID":1}},{"type":"Feature","geometry":{"type":"Point","coordinates":[-71.055378,42.373274]},"properties":{"UNIT_CODE":"BOST","UNIT_NAME":"Boston National Historical Park","STATE":"MA","Status":"Official","AreaID":1}},{"type":"Feature","geometry":{"type":"Point","coordinates":[-71.055378,42.373274]},"properties":{"UNIT_CODE":"BOST","UNIT_NAME":"Boston National Historical Park","STATE":"MA","Status":"Official","AreaID":1}},{"type":"Feature","geometry":{"type":"Point","coordinates":[-109.347548,32.01578]},"properties":{"UNIT_CODE":"CHIR","UNIT_NAME":"Chiricahua National Monument","STATE":"AZ","Status":"Official","AreaID":361}},{"type":"Feature","geometry":{"type":"Point","coordinates":[-84.432281,32.026642]},"properties":{"UNIT_CODE":"JICA","UNIT_NAME":"Jimmy Carter National Historical Park","STATE":"GA","Status":"Official","AreaID":232}},{"type":"Feature","geometry":{"type":"Point","coordinates":[-156.132552,20.699431]},"properties":{"UNIT_CODE":"HALE","UNIT_NAME":"Haleakala National Park","STATE":"HI","Status":"Official","AreaID":338}},{"type":"Feature","geometry":{"type":"Point","coordinates":[-81.312449,29.897905]},"properties":{"UNIT_CODE":"CASA","UNIT_NAME":"Castillo de San Marcos National Monument","STATE":"FL","Status":"Official","AreaID":185}},{"type":"Feature","geometry":{"type":"Point","coordinates":[-73.629542,42.991934]},"properties":{"UNIT_CODE":"SARA","UNIT_NAME":"Saratoga National Historical Park","STATE":"NY","Status":"Official","AreaID":22}},{"type":"Feature","geometry":{"type":"Point","coordinates":[-103.45389,43.879942]},"properties":{"UNIT_CODE":"MORU","UNIT_NAME":"Mount Rushmore National Memorial","STATE":"SD","Status":"Official","AreaID":75}},{"type":"Feature","geometry":{"type":"Point","coordinates":[-81.80954,35.13276]},"properties":{"UNIT_CODE":"COWP","UNIT_NAME":"Cowpens National Battlefield","STATE":"SC","Status":"Official","AreaID":210}},{"type":"Feature","geometry":{"type":"Point","coordinates":[-90.134802,29.805964]},"properties":{"UNIT_CODE":"JELA","UNIT_NAME":"Jean Lafitte National Historical Park and Preserve","STATE":"LA","Status":"Official","AreaID":316}},{"type":"Feature","geometry":{"type":"Point","coordinates":[-77.048042,38.887899]},"properties":{"UNIT_CODE":"KOWA","UNIT_NAME":"Korean War Veterans Memorial","STATE":"DC","Status":"Official","AreaID":117}},{"type":"Feature","geometry":{"type":"Point","coordinates":[-76.835225,39.063209]},"properties":{"UNIT_CODE":"NACA","UNIT_NAME":"National Capital Parks","STATE":"DC-MD","Status":"Official","AreaID":92}},{"type":"Feature","geometry":{"type":"Point","coordinates":[-86.814672,33.515434]},"properties":{"UNIT_CODE":"BICR","UNIT_NAME":"Birmingham Civil Rights National Monument","STATE":"AL","Status":"Official","AreaID":450}},{"type":"Feature","geometry":{"type":"Point","coordinates":[-77.043891,38.886421]},"properties":{"UNIT_CODE":"MLKM","UNIT_NAME":"Martin Luther King, Jr., Memorial","STATE":"DC","Status":"Official","AreaID":424}},{"type":"Feature","geometry":{"type":"Point","coordinates":[-82.87411,24.645754]},"properties":{"UNIT_CODE":"DRTO","UNIT_NAME":"Dry Tortugas National Park","STATE":"FL","Status":"Official","AreaID":190}},{"type":"Feature","geometry":{"type":"Point","coordinates":[-68.245465,44.337936]},"properties":{"UNIT_CODE":"ACAD","UNIT_NAME":"Acadia National Park","STATE":"ME","Status":"Legacy","AreaID":4}},{"type":"Feature","geometry":{"type":"Point","coordinates":[-119.087699,37.615381]},"properties":{"UNIT_CODE":"DEPO","UNIT_NAME":"Devils Postpile National Monument","STATE":"CA","Status":"Official","AreaID":358}},{"type":"Feature","geometry":{"type":"Point","coordinates":[-109.595467,38.707924]},"properties":{"UNIT_CODE":"ARCH","UNIT_NAME":"Arches National Park","STATE":"UT","Status":"Official","AreaID":52}},{"type":"Feature","geometry":{"type":"Point","coordinates":[-74.2398,40.785726]},"properties":{"UNIT_CODE":"EDIS","UNIT_NAME":"Thomas Edison National Historical Park","STATE":"NJ","Status":"Official","AreaID":25}},{"type":"Feature","geometry":{"type":"Point","coordinates":[-109.073003,37.383553]},"properties":{"UNIT_CODE":"HOVE","UNIT_NAME":"Hovenweep National Monument","STATE":"CO-UT","Status":"Official","AreaID":72}},{"type":"Feature","geometry":{"type":"Point","coordinates":[-81.104991,25.986564]},"properties":{"UNIT_CODE":"BICY","UNIT_NAME":"Big Cypress National Preserve","STATE":"FL 5/","Status":"Official","AreaID":166}},{"type":"Feature","geometry":{"type":"Point","coordinates":[-99.704479,35.620843]},"properties":{"UNIT_CODE":"WABA","UNIT_NAME":"Washita Battlefield National Historic Site","STATE":"OK","Status":"Official","AreaID":323}},{"type":"Feature","geometry":{"type":"Point","coordinates":[-92.299836,34.737255]},"properties":{"UNIT_CODE":"CHSC","UNIT_NAME":"Little Rock Central High School National Historic Site","STATE":"AR","Status":"Official","AreaID":299}},{"type":"Feature","geometry":{"type":"Point","coordinates":[-164.174087,65.922709]},"properties":{"UNIT_CODE":"BELA","UNIT_NAME":"Bering Land Bridge National Preserve","STATE":"AK","Status":"Official","AreaID":404}},{"type":"Feature","geometry":{"type":"Point","coordinates":[-90.041631,37.973592]},"properties":{"UNIT_CODE":"STGE","UNIT_NAME":"Ste. Genevieve National Historical Park","STATE":"MO","Status":"Official","AreaID":454}},{"type":"Feature","geometry":{"type":"Point","coordinates":[-76.527281,37.244067]},"properties":{"UNIT_CODE":"COLO","UNIT_NAME":"Colonial National Historical Park","STATE":"VA","Status":"Official","AreaID":138}},{"type":"Feature","geometry":{"type":"Point","coordinates":[-110.490095,44.583039]},"properties":{"UNIT_CODE":"YELL","UNIT_NAME":"Yellowstone National Park","STATE":"ID-MT-WY","Status":"Official","AreaID":89}},{"type":"Feature","geometry":{"type":"Point","coordinates":[-81.350891,41.664884]},"properties":{"UNIT_CODE":"JAGA","UNIT_NAME":"James A. Garfield National Historic Site","STATE":"OH","Status":"Official","AreaID":253}},{"type":"Feature","geometry":{"type":"Point","coordinates":[-74.016779,40.703484]},"properties":{"UNIT_CODE":"CACL","UNIT_NAME":"Castle Clinton National Monument","STATE":"NY","Status":"Official","AreaID":28}},{"type":"Feature","geometry":{"type":"Point","coordinates":[-118.562615,35.226632]},"properties":{"UNIT_CODE":"CECH","UNIT_NAME":"César E. Chávez National Monument","STATE":"CA","Status":"Official","AreaID":427}},{"type":"Feature","geometry":{"type":"Point","coordinates":[-75.671569,41.407972]},"properties":{"UNIT_CODE":"STEA","UNIT_NAME":"Steamtown National Historic Site","STATE":"PA","Status":"Official","AreaID":163}},{"type":"Feature","geometry":{"type":"Point","coordinates":[-113.539142,43.158742]},"properties":{"UNIT_CODE":"CRMP","UNIT_NAME":"Craters of the Moon National Preserve","STATE":"ID","Status":"Official","AreaID":381}},{"type":"Feature","geometry":{"type":"Point","coordinates":[-71.123231,42.346943]},"properties":{"UNIT_CODE":"JOFI","UNIT_NAME":"John Fitzgerald Kennedy National Historic Site","STATE":"MA","Status":"Official","AreaID":7}},{"type":"Feature","geometry":{"type":"Point","coordinates":[-86.012469,45.10777]},"properties":{"UNIT_CODE":"SLBE","UNIT_NAME":"Sleeping Bear Dunes National Lakeshore","STATE":"MI","Status":"Official","AreaID":279}},{"type":"Feature","geometry":{"type":"Point","coordinates":[-77.036142,38.881259]},"properties":{"UNIT_CODE":"JEFM","UNIT_NAME":"Thomas Jefferson Memorial","STATE":"DC","Status":"Official","AreaID":114}},{"type":"Feature","geometry":{"type":"Point","coordinates":[-82.810008,41.654916]},"properties":{"UNIT_CODE":"PEVI","UNIT_NAME":"Perry's Victory and International Peace Memorial","STATE":"OH","Status":"Official","AreaID":273}},{"type":"Feature","geometry":{"type":"Point","coordinates":[-110.722862,44.088156]},"properties":{"UNIT_CODE":"JODR","UNIT_NAME":"John D. Rockefeller, Jr., Memorial Parkway","STATE":"WY","Status":"Official","AreaID":69}},{"type":"Feature","geometry":{"type":"Point","coordinates":[-108.272495,33.22683]},"properties":{"UNIT_CODE":"GICL","UNIT_NAME":"Gila Cliff Dwellings National Monument","STATE":"NM","Status":"Official","AreaID":296}},{"type":"Feature","geometry":{"type":"Point","coordinates":[-102.532722,29.757754]},"properties":{"UNIT_CODE":"RIGR","UNIT_NAME":"Rio Grande Wild and Scenic River","STATE":"TX","Status":"Official","AreaID":319}},{"type":"Feature","geometry":{"type":"Point","coordinates":[-115.539377,35.097185]},"properties":{"UNIT_CODE":"MOJA","UNIT_NAME":"Mojave National Preserve","STATE":"CA","Status":"Official","AreaID":344}},{"type":"Feature","geometry":{"type":"Point","coordinates":[-80.995485,37.560854]},"properties":{"UNIT_CODE":"BLUE","UNIT_NAME":"Bluestone National Scenic River","STATE":"WV","Status":"Official","AreaID":135}},{"type":"Feature","geometry":{"type":"Point","coordinates":[-94.530805,38.901221]},"properties":{"UNIT_CODE":"HSTR","UNIT_NAME":"Harry S Truman National Historic Site","STATE":"MO","Status":"Official","AreaID":256}},{"type":"Feature","geometry":{"type":"Point","coordinates":[-150.602967,63.32629]},"properties":{"UNIT_CODE":"DENA","UNIT_NAME":"Denali National Park","STATE":"AK","Status":"Official","AreaID":407}},{"type":"Feature","geometry":{"type":"Point","coordinates":[-138.369954,59.130064]},"properties":{"UNIT_CODE":"GLBA","UNIT_NAME":"Glacier Bay National Preserve","STATE":"AK","Status":"Official","AreaID":410}},{"type":"Feature","geometry":{"type":"Point","coordinates":[-123.404325,42.104599]},"properties":{"UNIT_CODE":"ORCA","UNIT_NAME":"Oregon Caves National Monument and Preserve","STATE":"OR","Status":"Official","AreaID":385}},{"type":"Feature","geometry":{"type":"Point","coordinates":[-77.436697,37.547366]},"properties":{"UNIT_CODE":"MAWA","UNIT_NAME":"Maggie L. Walker National Historic Site","STATE":"VA","Status":"Official","AreaID":159}},{"type":"Feature","geometry":{"type":"Point","coordinates":[-85.731763,32.97446]},"properties":{"UNIT_CODE":"HOBE","UNIT_NAME":"Horseshoe Bend National Military Park","STATE":"AL","Status":"Official","AreaID":207}},{"type":"Feature","geometry":{"type":"Point","coordinates":[-83.645237,36.618848]},"properties":{"UNIT_CODE":"CUGA","UNIT_NAME":"Cumberland Gap National Historical Park","STATE":"KY-TN-VA","Status":"Official","AreaID":182}},{"type":"Feature","geometry":{"type":"Point","coordinates":[-111.836677,34.613193]},"properties":{"UNIT_CODE":"MOCA","UNIT_NAME":"Montezuma Castle National Monument","STATE":"AZ","Status":"Official","AreaID":364}},{"type":"Feature","geometry":{"type":"Point","coordinates":[-156.030975,19.67827]},"properties":{"UNIT_CODE":"KAHO","UNIT_NAME":"Kaloko-Honokohau National Historical Park","STATE":"HI","Status":"Official","AreaID":341}},{"type":"Feature","geometry":{"type":"Point","coordinates":[-86.72819,32.270743]},"properties":{"UNIT_CODE":"SEMO","UNIT_NAME":"Selma to Montgomery National Historic Trail","STATE":"AL","Status":"Official","AreaID":229}},{"type":"Feature","geometry":{"type":"Point","coordinates":[-77.521883,38.831659]},"properties":{"UNIT_CODE":"MANA","UNIT_NAME":"Manassas National Battlefield Park","STATE":"VA","Status":"Official","AreaID":110}},{"type":"Feature","geometry":{"type":"Point","coordinates":[-92.017171,46.029339]},"properties":{"UNIT_CODE":"SACN","UNIT_NAME":"Saint Croix National Scenic Riverway","STATE":"MN-WI","Status":"Official","AreaID":276}},{"type":"Feature","geometry":{"type":"Point","coordinates":[-83.889837,39.708686]},"properties":{"UNIT_CODE":"CHYO","UNIT_NAME":"Charles Young Buffalo Soldiers National Monument","STATE":"OH","Status":"Official","AreaID":430}}]}
