{"type":"FeatureCollection","crs":{"type":"name","properties":{"name":"EPSG:4326"}},"features":[{"type":"Feature","geometry":{"type":"Polygon","coordinates":[[[-111.10233,45.10807],[-111.09691,45.10353],[-111.08478,45.10177],[-111.08154,45.09528],[-111.07706,45.09369],[-111.07354,45.0902],[-111.07419,45.0878],[-111.0707,45.08105],[-111.06977,45.07548],[-111.06583,45.07431],[-111.06194,45.06927],[-111.05503,45.06606],[-111.04965,45.06706],[-111.04824,45.07252],[-111.02952,45.08116],[-111.01838,45.08226],[-111.02031,45.08547],[-111.01678,45.0886],[-111.01732,45.09216],[-111.01034,45.09565],[-111.00962,45.09865],[-111.00078,45.09812],[-110.99131,45.09301],[-110.98209,45.09191],[-110.98165,45.0881],[-110.97693,45.08453],[-110.97606,45.08192],[-110.96995,45.08117],[-110.96508,45.08361],[-110.95904,45.08077],[-110.96049,45.07933],[-110.95902,45.07687],[-110.95272,45.07601],[-110.95031,45.07353],[-110.94483,45.07385],[-110.94266,45.07578],[-110.94038,45.07146],[-110.94143,45.0688],[-110.93704,45.06488],[-110.92973,45.06743],[-110.93292,45.05991],[-110.93682,45.05538],[-110.936,45.05333],[-110.93333,45.05272],[-110.92997,45.04894],[-110.92701,45.0496],[-110.91593,45.04573],[-110.91688,45.04431],[-110.91126,45.0411],[-110.91425,45.03801],[-110.91454,45.03491],[-110.90877,45.0315],[-110.90985,45.02963],[-110.84178,45.02957],[-110.83682,45.04508],[-110.83295,45.0446],[-110.83113,45.04916],[-110.82604,45.05417],[-110.8211,45.0557],[-110.81389,45.05407],[-110.8052,45.0548],[-110.79591,45.06028],[-110.78549,45.06183],[-110.77239,45.0669],[-110.76837,45.06203],[-110.76392,45.05967],[-110.76155,45.05492],[-110.74483,45.04477],[-110.7315,45.0428],[-110.72519,45.03746],[-110.7124,45.03307],[-110.71228,45.02982],[-110.09718,45.02957],[-110.09192,45.03205],[-110.07709,45.02978],[-110.06639,45.03411],[-110.06033,45.03469],[-110.05658,45.03755],[-110.05171,45.03791],[-110.04874,45.04172],[-110.03892,45.04506],[-110.03464,45.05295],[-110.0235,45.05428],[-110.02187,45.0524],[-110.01627,45.05147],[-110.00967,45.05358],[-110.00531,45.05065],[-110.00035,45.04548],[-110.00438,45.03993],[-110.00394,45.03787],[-109.99761,45.03119],[-110.0018,45.02796],[-110.00197,44.97407],[-109.99382,44.9709],[-109.98466,44.97182],[-109.97813,44.97045],[-109.96986,44.97277],[-109.9673,44.96834],[-109.9613,44.96371],[-109.95779,44.95617],[-109.94789,44.94893],[-109.94012,44.93676],[-109.92871,44.93435],[-109.92718,44.93196],[-109.92891,44.92821],[-109.92749,44.91223],[-109.93186,44.90394],[-109.92883,44.89798],[-109.93006,44.89061],[-109.93808,44.87933],[-109.93559,44.87497],[-109.93528,44.87026],[-109.93759,44.86545],[-109.93628,44.8622],[-109.9401,44.85531],[-109.93954,44.85131],[-109.93611,44.84888],[-109.93576,44.84654],[-109.93152,44.84306],[-109.92811,44.83708],[-109.94053,44.83072],[-109.95899,44.81665],[-109.95392,44.80421],[-109.95787,44.80111],[-109.94657,44.79676],[-109.94433,44.7943],[-109.92936,44.79107],[-109.91981,44.78308],[-109.91332,44.77191],[-109.90554,44.76376],[-109.89014,44.75798],[-109.88687,44.75466],[-109.88509,44.75061],[-109.88606,44.74744],[-109.88278,44.74399],[-109.88333,44.74028],[-109.87575,44.73702],[-109.87575,44.73513],[-109.87362,44.73423],[-109.86621,44.73431],[-109.86106,44.72517],[-109.85667,44.72295],[-109.85056,44.72621],[-109.83506,44.72369],[-109.83396,44.71749],[-109.83191,44.71681],[-109.83136,44.71313],[-109.82419,44.70812],[-109.82694,44.70512],[-109.8266,44.7003],[-109.83689,44.69475],[-109.84151,44.68853],[-109.84173,44.68456],[-109.84761,44.68116],[-109.85915,44.67894],[-109.86382,44.67195],[-109.86842,44.67043],[-109.87265,44.66554],[-109.87526,44.65771],[-109.87948,44.65206],[-109.88523,44.65297],[-109.89564,44.64908],[-109.90409,44.64865],[-109.90825,44.64397],[-109.90773,44.63788],[-109.92297,44.63531],[-109.92827,44.63049],[-109.93541,44.63091],[-109.93881,44.63262],[-109.9538,44.6271],[-109.96719,44.62889],[-109.97614,44.62054],[-109.98287,44.62091],[-109.98643,44.62438],[-109.99274,44.62174],[-110.00326,44.62072],[-110.00933,44.61639],[-110.01449,44.61954],[-110.01544,44.61748],[-110.01749,44.62127],[-110.02448,44.62496],[-110.02462,44.6279],[-110.02694,44.62503],[-110.0244,44.61904],[-110.03154,44.61487],[-110.0337,44.61191],[-110.03222,44.60982],[-110.03365,44.60784],[-110.04956,44.6057],[-110.06094,44.60735],[-110.06428,44.60582],[-110.06482,44.59738],[-110.06964,44.59133],[-110.068,44.58751],[-110.07393,44.58005],[-110.07991,44.57554],[-110.0936,44.57268],[-110.09605,44.57039],[-110.11159,44.57105],[-110.11318,44.5689],[-110.12123,44.56808],[-110.12497,44.56339],[-110.1315,44.5594],[-110.13113,44.55593],[-110.13435,44.55288],[-110.1529,44.55443],[-110.15962,44.54762],[-110.16675,44.54581],[-110.17143,44.5467],[-110.17232,44.54343],[-110.16899,44.53981],[-110.16853,44.53214],[-110.15778,44.52554],[-110.1545,44.52515],[-110.15336,44.52105],[-110.14735,44.51974],[-110.14619,44.5172],[-110.14126,44.51625],[-110.14304,44.51109],[-110.14652,44.50923],[-110.14565,44.50452],[-110.14739,44.50107],[-110.14271,44.49914],[-110.14348,44.4944],[-110.1402,44.48955],[-110.12932,44.48658],[-110.12974,44.47946],[-110.1224,44.47328],[-110.11386,44.47564],[-110.11067,44.48049],[-110.10282,44.4855],[-110.08697,44.49138],[-110.06947,44.49096],[-110.06428,44.49467],[-110.03783,44.49638],[-110.02816,44.50122],[-110.01878,44.49942],[-110.00116,44.50408],[-110.00118,44.46059],[-110.00861,44.45532],[-110.01236,44.45031],[-110.02425,44.44219],[-110.02746,44.43663],[-110.02617,44.43443],[-110.02686,44.43125],[-110.03326,44.4268],[-110.03912,44.42428],[-110.04614,44.42731],[-110.05485,44.42123],[-110.06056,44.42059],[-110.06221,44.41692],[-110.06133,44.41491],[-110.06711,44.40384],[-110.07454,44.39813],[-110.06936,44.38998],[-110.06912,44.37829],[-110.06773,44.37592],[-110.07215,44.37377],[-110.06952,44.36485],[-110.07324,44.35846],[-110.07345,44.35186],[-110.07071,44.34715],[-110.07151,44.34211],[-110.06268,44.33584],[-110.06202,44.33257],[-110.04124,44.32881],[-110.03926,44.3248],[-110.02716,44.32028],[-110.01209,44.32677],[-110.00075,44.32404],[-110.00113,44.13267],[-111.09803,44.13285],[-111.09681,45.02211],[-111.10172,45.02566],[-111.10802,45.02663],[-111.11107,45.02872],[-111.11301,45.03276],[-111.12107,45.03576],[-111.1242,45.04014],[-111.13055,45.04208],[-111.13316,45.04487],[-111.14404,45.04714],[-111.15593,45.05297],[-111.14497,45.06186],[-111.13475,45.06163],[-111.13599,45.06724],[-111.1374,45.06683],[-111.14096,45.07254],[-111.1416,45.07697],[-111.13661,45.08231],[-111.13009,45.0855],[-111.13016,45.0884],[-111.1344,45.09077],[-111.13053,45.09649],[-111.132,45.10119],[-111.12914,45.10016],[-111.1227,45.10291],[-111.11755,45.10163],[-111.11347,45.10706],[-111.10376,45.10898],[-111.10233,45.10807]]]},"properties":{"UNIT_CODE":"YELL","UNIT_NAME":"Yellowstone National Park"}}]}
